{"type":"FeatureCollection","sistema":"local Cabanillas Drive: [x, z] en metros, x = E − E_centro, z = −(N − N_centro)","fuente":"© colaboradores de OpenStreetMap (ODbL)","features":[{"type":"Feature","properties":{"id":"w1187564612","nombre":"Canal de Tauste","tipo":"canal"},"geometry":{"type":"LineString","coordinates":[[-750.0,-55.07],[-745.07,-54.07],[-708.09,-57.84],[-691.72,-49.85],[-603.16,41.66],[-552.37,88.93],[-504.59,123.49],[-471.63,128.2],[-450.4,140.61],[-437.78,156.18],[-414.07,195.02],[-385.29,211.3],[-332.02,220.71],[-274.33,252.84],[-234.73,271.25],[-51.73,323.58],[-9.92,339.75],[94.77,376.39],[254.85,431.98],[324.04,453.64],[375.95,477.0],[416.88,488.42],[469.08,493.45],[498.79,487.18],[542.87,502.95],[582.49,510.33],[662.62,523.57],[745.4,544.45],[750.0,545.62]]}},{"type":"Feature","properties":{"id":"w1426811017","nombre":"Barranco de los Carnuces","tipo":"stream"},"geometry":{"type":"LineString","coordinates":[[750.0,-301.04],[749.86,-300.63],[729.98,-267.02],[710.04,-236.62],[687.11,-192.22],[639.06,-90.5],[600.2,-1.83],[566.38,66.9],[557.13,92.29],[556.49,95.16]]}},{"type":"Feature","properties":{"id":"w1426811029","nombre":"Barranco de los Carnuces","tipo":"stream"},"geometry":{"type":"LineString","coordinates":[[554.29,105.1],[552.13,114.91],[533.47,188.75],[531.09,204.65],[526.08,218.93],[515.26,230.5],[504.92,237.21],[493.98,246.95],[481.18,259.59],[473.7,272.09],[459.96,307.19],[456.04,315.64],[454.03,329.5],[453.07,343.19],[456.87,359.11],[468.98,373.93],[509.21,395.77],[571.12,424.76],[635.39,466.04],[704.4,500.8],[750.0,516.73]]}},{"type":"Feature","properties":{"id":"w1426811030","nombre":"Barranco de los Carnuces","tipo":"stream"},"geometry":{"type":"LineString","coordinates":[[556.49,95.16],[554.29,105.1]]}},{"type":"Feature","properties":{"id":"w1426811033","nombre":"Barranco del Cementerio","tipo":"stream"},"geometry":{"type":"LineString","coordinates":[[464.52,-700.0],[468.68,-694.49],[496.27,-672.78],[543.12,-646.47],[574.52,-623.87],[607.65,-605.76],[748.53,-536.09],[750.0,-535.49]]}}]}