{"type":"FeatureCollection","sistema":"local Cabanillas Drive: [x, z] en metros, x = E − E_centro, z = −(N − N_centro)","fuente":"© colaboradores de OpenStreetMap (ODbL)","features":[{"type":"Feature","properties":{"id":"w138965931","nombre":"Carretera Tudela - Tauste","tipo":"primary"},"geometry":{"type":"LineString","coordinates":[[459.6,324.54],[508.78,348.78],[610.76,397.94],[656.13,413.62],[669.17,416.18],[710.76,422.52],[750.0,427.13]]}},{"type":"Feature","properties":{"id":"w1426810991","tipo":"unclassified"},"geometry":{"type":"LineString","coordinates":[[-529.85,3.03],[-528.85,-12.42],[-527.06,-23.99]]}},{"type":"Feature","properties":{"id":"w1426810992","tipo":"service","sentido_unico":"yes"},"geometry":{"type":"LineString","coordinates":[[-502.83,-25.53],[-498.2,-25.17],[-488.2,-20.3],[-479.92,-12.75],[-475.26,-10.85],[-469.08,-10.31],[-466.2,-11.59],[-465.17,-13.66],[-464.2,-17.33],[-464.87,-21.57],[-478.25,-43.73],[-485.61,-49.09],[-490.44,-47.91],[-494.54,-43.01],[-496.84,-35.73],[-499.4,-31.08],[-502.83,-25.53]]}},{"type":"Feature","properties":{"id":"w1426810993","tipo":"service"},"geometry":{"type":"LineString","coordinates":[[-527.06,-23.99],[-502.83,-25.53]]}},{"type":"Feature","properties":{"id":"w1426811001","nombre":"Calle San Isidro","tipo":"residential"},"geometry":{"type":"LineString","coordinates":[[-247.42,-116.03],[-242.81,9.92],[-242.63,15.01]]}},{"type":"Feature","properties":{"id":"w1426811002","tipo":"unclassified"},"geometry":{"type":"LineString","coordinates":[[-96.93,-157.13],[-94.73,-155.37],[-86.69,-148.95],[-51.4,-130.27]]}},{"type":"Feature","properties":{"id":"w1426811003","tipo":"unclassified"},"geometry":{"type":"LineString","coordinates":[[-116.7,-129.39],[-104.63,-144.95],[-96.93,-157.13],[-79.92,-168.86],[-55.87,-179.6],[-25.3,-182.53],[18.52,-183.95],[29.97,-184.59],[40.48,-188.5],[57.64,-203.07],[104.88,-248.88],[116.4,-257.86],[126.94,-260.02],[143.93,-257.92],[163.84,-255.48],[175.5,-255.14],[191.41,-254.53],[214.52,-253.63],[236.2,-248.73],[252.25,-237.81],[267.96,-221.84],[279.67,-207.12],[292.07,-190.21],[300.93,-162.7],[307.68,-129.01],[309.83,-118.67]]}},{"type":"Feature","properties":{"id":"w1426811004","tipo":"unclassified"},"geometry":{"type":"LineString","coordinates":[[168.03,-289.41],[172.09,-279.24],[180.03,-265.77],[186.55,-258.07],[191.41,-254.53]]}},{"type":"Feature","properties":{"id":"w1426811031","nombre":"Calle Ramón y Cajal","tipo":"primary"},"geometry":{"type":"LineString","coordinates":[[-276.67,205.97],[-250.66,229.07],[-241.37,235.33],[-226.57,241.99],[-211.62,244.97],[-200.6,245.56],[-190.8,245.46],[-167.35,245.14],[-158.07,244.96],[-120.33,243.35],[-85.14,241.99],[-33.83,239.65],[-26.46,239.29],[108.33,233.74],[118.13,233.52],[175.83,231.18],[204.83,233.01],[226.52,236.6],[250.8,242.92],[259.32,245.73],[346.37,273.33],[386.54,290.64],[416.88,304.64],[422.76,307.43],[440.25,315.71]]}},{"type":"Feature","properties":{"id":"w1426811032","nombre":"Carretera Tudela - Tauste","tipo":"primary","puente":"yes","capa":"1"},"geometry":{"type":"LineString","coordinates":[[446.15,318.47],[459.6,324.54]]}},{"type":"Feature","properties":{"id":"w1428535690","tipo":"service"},"geometry":{"type":"LineString","coordinates":[[159.2,-206.23],[163.28,-206.08],[221.09,-203.86]]}},{"type":"Feature","properties":{"id":"w1428958655","nombre":"Calle San Francisco Javier","tipo":"residential"},"geometry":{"type":"LineString","coordinates":[[-426.05,77.61],[-419.59,75.92],[-411.85,72.65],[-407.55,69.69],[-402.52,65.97],[-399.76,64.09],[-396.7,62.73]]}},{"type":"Feature","properties":{"id":"w1428958656","nombre":"Calle San Francisco Javier","tipo":"primary_link","sentido_unico":"yes"},"geometry":{"type":"LineString","coordinates":[[-396.7,62.73],[-400.88,62.19],[-414.47,62.77],[-435.44,63.8],[-443.21,62.92],[-451.41,60.93]]}},{"type":"Feature","properties":{"id":"w1428958657","nombre":"Calle San Francisco Javier","tipo":"primary_link","sentido_unico":"yes"},"geometry":{"type":"LineString","coordinates":[[-414.47,62.77],[-417.61,64.21],[-420.23,66.7],[-423.32,71.03],[-426.05,77.61]]}},{"type":"Feature","properties":{"id":"w1428958658","tipo":"primary_link","sentido_unico":"yes"},"geometry":{"type":"LineString","coordinates":[[-400.09,94.8],[-400.67,88.44],[-400.95,83.51],[-400.01,78.96],[-397.59,71.5],[-396.84,68.03],[-396.7,62.73]]}},{"type":"Feature","properties":{"id":"w1428958659","tipo":"primary_link","sentido_unico":"yes"},"geometry":{"type":"LineString","coordinates":[[-400.01,78.96],[-395.35,71.05],[-391.05,66.2],[-384.78,62.43]]}},{"type":"Feature","properties":{"id":"w1428958660","nombre":"Calle Jai Alai","tipo":"unclassified","sentido_unico":"yes"},"geometry":{"type":"LineString","coordinates":[[-459.68,22.33],[-454.96,15.38],[-452.56,13.47],[-437.42,6.33],[-425.17,0.67],[-417.69,-6.82]]}},{"type":"Feature","properties":{"id":"w1428958661","nombre":"Calle Jai Alai","tipo":"unclassified"},"geometry":{"type":"LineString","coordinates":[[-51.4,-130.27],[-55.82,-130.21],[-116.7,-129.39],[-149.29,-128.96],[-216.41,-120.82],[-247.42,-116.03]]}},{"type":"Feature","properties":{"id":"w1431146189","nombre":"Travesía Cañada de los Roncaleses","tipo":"unclassified"},"geometry":{"type":"LineString","coordinates":[[452.86,274.16],[456.79,264.19],[459.25,258.16],[483.23,188.58],[487.47,182.07],[493.36,176.33],[501.05,170.37],[508.75,160.79],[514.24,150.89],[529.97,100.57],[568.36,23.2],[567.58,15.76],[561.24,9.17],[546.09,-1.24],[528.05,-9.76],[504.94,-12.62]]}},{"type":"Feature","properties":{"id":"w1431146191","nombre":"Calle San Isidro","tipo":"unclassified"},"geometry":{"type":"LineString","coordinates":[[504.94,-12.62],[471.17,-11.53],[470.99,-22.74],[469.71,-25.42]]}},{"type":"Feature","properties":{"id":"w1432508267","nombre":"Carretera Tudela - Tauste","tipo":"primary"},"geometry":{"type":"LineString","coordinates":[[-750.0,-168.17],[-529.85,3.03],[-501.32,24.49],[-462.92,52.83],[-460.49,54.62],[-451.41,60.93],[-447.15,63.89],[-426.05,77.61],[-405.02,90.96],[-400.09,94.8],[-391.57,101.14],[-369.1,117.87],[-345.07,139.69],[-331.17,153.16],[-284.25,198.61],[-276.67,205.97]]}},{"type":"Feature","properties":{"id":"w1432508268","nombre":"Calle San Roque","tipo":"service","sentido_unico":"yes"},"geometry":{"type":"LineString","coordinates":[[-200.6,245.56],[-198.02,247.02],[-193.7,248.78],[-181.14,249.27],[-158.04,248.57],[-132.39,247.53],[-123.88,247.76],[-114.73,249.01]]}},{"type":"Feature","properties":{"id":"w1432508269","tipo":"residential","sentido_unico":"yes"},"geometry":{"type":"LineString","coordinates":[[-87.79,256.22],[-89.84,253.09],[-90.11,249.13],[-89.3,247.4],[-88.44,245.55],[-85.14,241.99]]}},{"type":"Feature","properties":{"id":"w1432508292","tipo":"service"},"geometry":{"type":"LineString","coordinates":[[-750.0,-529.0],[-714.75,-505.67],[-711.77,-498.81],[-712.71,-482.12],[-713.16,-460.56],[-712.71,-434.13],[-710.29,-412.63],[-703.41,-391.6],[-699.96,-381.08],[-702.37,-374.33]]}},{"type":"Feature","properties":{"id":"w1433470751","nombre":"Carretera Tudela - Tauste","tipo":"primary"},"geometry":{"type":"LineString","coordinates":[[440.25,315.71],[446.15,318.47]]}},{"type":"Feature","properties":{"id":"w1433470752","nombre":"Calle las Granjas","tipo":"residential"},"geometry":{"type":"LineString","coordinates":[[452.86,274.16],[440.79,306.79],[440.25,315.71]]}},{"type":"Feature","properties":{"id":"w1433470753","tipo":"service"},"geometry":{"type":"MultiLineString","coordinates":[[[459.25,258.16],[446.57,253.0]],[[446.57,253.0],[437.24,249.09],[433.97,244.89],[434.77,239.57],[440.07,238.07],[451.49,240.34],[454.05,244.9],[446.57,253.0]]]}},{"type":"Feature","properties":{"id":"w1433470817","tipo":"service"},"geometry":{"type":"LineString","coordinates":[[491.06,285.05],[495.15,297.18],[499.21,307.48],[504.88,317.15],[510.49,322.74],[518.89,328.48]]}},{"type":"Feature","properties":{"id":"w1433570217","nombre":"Calle las Eras","tipo":"residential"},"geometry":{"type":"LineString","coordinates":[[258.49,184.4],[259.9,188.96],[262.02,193.25],[262.84,197.29],[262.79,202.09]]}},{"type":"Feature","properties":{"id":"w1433570218","nombre":"Calle Fueros de Navarra","tipo":"residential"},"geometry":{"type":"LineString","coordinates":[[203.5,186.91],[221.05,190.33],[232.51,192.97],[248.21,197.5],[258.45,200.72],[262.79,202.09]]}},{"type":"Feature","properties":{"id":"w1433831340","nombre":"Calle el Saco","tipo":"living_street"},"geometry":{"type":"LineString","coordinates":[[395.27,376.36],[398.71,372.95],[412.64,359.15],[412.7,355.99],[409.66,349.5],[398.88,338.83]]}},{"type":"Feature","properties":{"id":"w1433831399","nombre":"Plaza del Ayuntamiento","tipo":"living_street"},"geometry":{"type":"LineString","coordinates":[[148.38,325.4],[150.69,326.11],[191.2,339.48]]}},{"type":"Feature","properties":{"id":"w1433831400","nombre":"Plaza del Ayuntamiento","tipo":"living_street","sentido_unico":"yes"},"geometry":{"type":"LineString","coordinates":[[223.8,343.84],[199.99,336.36],[197.19,335.89],[194.65,336.07],[191.2,339.48]]}},{"type":"Feature","properties":{"id":"w1433831401","nombre":"Plaza Donantes","tipo":"living_street"},"geometry":{"type":"LineString","coordinates":[[223.8,343.84],[224.55,344.07],[226.64,344.81],[252.53,354.73]]}},{"type":"Feature","properties":{"id":"w1433831402","nombre":"Plaza del Ayuntamiento","tipo":"living_street","sentido_unico":"yes"},"geometry":{"type":"LineString","coordinates":[[191.2,339.48],[191.96,344.1],[193.81,345.93],[197.24,347.73],[209.1,352.98],[220.23,357.35]]}},{"type":"Feature","properties":{"id":"w1433831403","nombre":"Plaza Donantes","tipo":"living_street"},"geometry":{"type":"LineString","coordinates":[[220.23,357.35],[222.07,358.13],[236.13,366.37],[240.53,369.18]]}},{"type":"Feature","properties":{"id":"w1433831404","nombre":"Calle del Canal","tipo":"living_street"},"geometry":{"type":"LineString","coordinates":[[87.63,366.9],[96.83,367.4],[126.33,375.53],[136.05,378.03],[175.57,382.98],[217.46,393.54],[220.43,393.26],[222.66,391.2],[235.19,368.54],[236.13,366.37]]}},{"type":"Feature","properties":{"id":"w1433831407","nombre":"Plaza Donantes","tipo":"living_street"},"geometry":{"type":"LineString","coordinates":[[227.23,342.94],[226.64,344.81],[222.07,358.13]]}},{"type":"Feature","properties":{"id":"w1433999027","nombre":"Calle San Roque","tipo":"living_street"},"geometry":{"type":"LineString","coordinates":[[12.02,283.91],[10.81,288.04],[8.92,294.26],[7.7,298.01],[7.22,302.89],[6.57,309.64],[6.62,314.23],[7.0,317.36],[7.11,318.24],[11.08,323.54],[22.96,333.49],[30.79,338.5],[39.1,342.21],[56.28,350.41],[80.06,359.94],[85.33,362.41],[87.06,364.08],[87.63,366.9]]}},{"type":"Feature","properties":{"id":"w1433999033","nombre":"Calle San Roque","tipo":"living_street"},"geometry":{"type":"LineString","coordinates":[[6.62,314.23],[43.17,331.01]]}},{"type":"Feature","properties":{"id":"w1433999086","nombre":"Calle del Canal","tipo":"living_street"},"geometry":{"type":"LineString","coordinates":[[220.43,393.26],[220.4,395.56],[222.05,397.08],[230.2,399.58]]}},{"type":"Feature","properties":{"id":"w1433999095","nombre":"Calle las Eras","tipo":"residential"},"geometry":{"type":"LineString","coordinates":[[250.8,242.92],[239.46,273.81],[236.09,284.75],[233.89,291.86]]}},{"type":"Feature","properties":{"id":"w1433999096","nombre":"Calle Juan XXIII","tipo":"residential"},"geometry":{"type":"LineString","coordinates":[[233.89,291.86],[238.1,293.81],[271.15,302.1],[315.29,317.28],[321.06,320.03],[325.19,323.29],[354.9,352.41],[357.62,357.55],[359.64,362.97],[362.57,364.93],[395.27,376.36],[424.33,387.77],[443.87,395.43]]}},{"type":"Feature","properties":{"id":"w1433999119","nombre":"Plaza Príncipe de Viana","tipo":"residential"},"geometry":{"type":"LineString","coordinates":[[393.34,430.24],[397.62,433.09],[399.66,435.9],[399.89,440.09],[399.69,444.1],[400.58,447.69],[412.41,450.57],[427.36,451.0],[435.52,450.8],[441.51,449.67]]}},{"type":"Feature","properties":{"id":"w1433999132","nombre":"Calle Iglesia","tipo":"residential"},"geometry":{"type":"LineString","coordinates":[[339.12,393.19],[337.56,396.23],[327.59,415.7],[326.91,417.02]]}},{"type":"Feature","properties":{"id":"w1433999171","nombre":"Plaza Príncipe de Viana","tipo":"living_street"},"geometry":{"type":"LineString","coordinates":[[420.34,463.98],[437.96,465.67],[446.17,466.1],[452.36,464.59],[456.77,462.06],[460.93,457.56]]}},{"type":"Feature","properties":{"id":"w1433999173","nombre":"Escorredero Principal","tipo":"unclassified"},"geometry":{"type":"LineString","coordinates":[[84.16,376.77],[83.21,379.23]]}},{"type":"Feature","properties":{"id":"w223076445","nombre":"Camino del Raso","tipo":"residential"},"geometry":{"type":"LineString","coordinates":[[-405.02,90.96],[-432.56,135.54],[-439.41,143.22]]}},{"type":"Feature","properties":{"id":"w223076446","nombre":"Escorredero Principal","tipo":"unclassified","puente":"yes"},"geometry":{"type":"LineString","coordinates":[[561.73,502.05],[560.4,510.79]]}},{"type":"Feature","properties":{"id":"w223076453","nombre":"Camino del Raso","tipo":"unclassified","puente":"yes"},"geometry":{"type":"LineString","coordinates":[[-439.41,143.22],[-448.55,152.81]]}},{"type":"Feature","properties":{"id":"w223076457","nombre":"Camino del Raso","tipo":"unclassified"},"geometry":{"type":"LineString","coordinates":[[-605.91,700.0],[-575.36,594.12],[-530.49,436.99],[-525.52,419.6],[-496.59,318.39],[-483.68,275.2],[-463.27,199.75],[-458.75,184.05],[-452.49,159.33],[-451.2,157.2],[-448.55,152.81]]}},{"type":"Feature","properties":{"id":"w223076462","nombre":"Calle Juan XXIII","tipo":"unclassified","superficie":"asphalt","velocidad_max":"20"},"geometry":{"type":"LineString","coordinates":[[470.99,405.82],[489.61,411.95],[519.02,421.56],[529.41,426.13],[536.91,432.13],[544.3,441.67],[550.78,456.54],[557.53,476.26],[561.36,489.44],[561.73,502.05]]}},{"type":"Feature","properties":{"id":"w314834996","nombre":"Calle Fueros de Navarra","tipo":"residential"},"geometry":{"type":"LineString","coordinates":[[493.36,176.33],[406.81,179.35],[403.83,179.46],[398.72,179.64],[389.91,179.96],[275.14,184.07],[258.49,184.4],[249.76,184.97],[203.5,186.91],[124.23,189.86],[116.9,190.15],[110.13,190.43],[-29.2,196.03],[-36.0,196.3],[-42.85,196.57],[-163.29,201.42],[-168.74,201.64],[-176.27,201.94],[-245.5,204.72],[-268.56,205.64],[-276.67,205.97]]}},{"type":"Feature","properties":{"id":"w314834998","nombre":"Calle Caballeros de Jerusalén","tipo":"residential"},"geometry":{"type":"LineString","coordinates":[[-345.07,139.69],[-338.06,135.61],[-325.02,133.53],[-309.31,133.03],[-181.28,128.93],[-172.23,128.64],[-160.01,128.16],[-38.63,123.37],[102.13,117.83],[113.66,117.37],[127.78,116.72],[255.41,110.78],[387.07,106.58],[396.17,106.22]]}},{"type":"Feature","properties":{"id":"w314836557","nombre":"Calle las Eras","tipo":"residential"},"geometry":{"type":"LineString","coordinates":[[258.49,184.4],[258.03,175.48],[255.41,110.78],[253.0,44.97],[252.78,38.79],[252.44,29.91],[251.42,3.35],[251.17,-3.01],[250.81,-12.55],[249.79,-39.07],[248.54,-71.35],[246.41,-126.73]]}},{"type":"Feature","properties":{"id":"w314836559","nombre":"Calle San Isidro","tipo":"residential"},"geometry":{"type":"LineString","coordinates":[[-501.32,24.49],[-459.68,22.33],[-419.19,20.81],[-397.95,20.22],[-242.63,15.01],[-177.32,12.89],[-157.71,12.17],[-50.65,8.17],[-43.77,7.91],[-36.24,7.64],[97.15,2.81],[108.54,2.4],[120.76,1.93],[240.36,-2.6],[251.17,-3.01],[259.89,-3.34],[382.71,-8.0],[392.18,-8.36]]}},{"type":"Feature","properties":{"id":"w314836561","nombre":"Paseo Pamplona","tipo":"residential"},"geometry":{"type":"LineString","coordinates":[[392.18,-8.36],[392.43,-1.37],[393.6,32.32],[393.88,40.28],[394.41,55.57],[396.17,106.22],[396.48,115.22],[398.39,170.2],[398.72,179.64],[401.45,239.7],[401.75,246.38]]}},{"type":"Feature","properties":{"id":"w314837581","nombre":"Calle la Vicera","tipo":"residential"},"geometry":{"type":"LineString","coordinates":[[101.48,-174.51],[102.69,-136.65],[103.0,-127.82],[105.15,-66.23],[108.11,-6.3],[108.54,2.4],[108.81,8.56],[110.01,35.51],[110.39,44.01],[110.73,51.67],[112.16,83.83],[113.66,117.37],[116.9,190.15],[117.15,195.75],[118.56,227.42],[118.13,233.52]]}},{"type":"Feature","properties":{"id":"w314837582","nombre":"Calle las Planas","tipo":"residential"},"geometry":{"type":"LineString","coordinates":[[-47.53,-60.69],[-42.06,-60.77],[92.0,-65.75],[105.15,-66.23],[248.54,-71.35]]}},{"type":"Feature","properties":{"id":"w314837584","nombre":"Travesía Cañada de los Roncaleses","tipo":"unclassified"},"geometry":{"type":"LineString","coordinates":[[504.94,-12.62],[481.83,-20.81],[469.71,-25.42],[461.35,-28.61],[400.78,-55.44],[391.15,-59.7],[381.0,-65.56],[334.19,-101.45],[309.83,-118.67],[289.61,-124.13],[246.41,-126.73],[238.28,-126.65],[126.48,-125.48],[114.13,-128.09],[102.69,-136.65]]}},{"type":"Feature","properties":{"id":"w314837586","nombre":"Calle las Eras","tipo":"residential"},"geometry":{"type":"LineString","coordinates":[[262.79,202.09],[261.18,207.79],[253.03,236.69],[250.8,242.92]]}},{"type":"Feature","properties":{"id":"w314837587","nombre":"Calle las Eras","tipo":"living_street","sentido_unico":"yes"},"geometry":{"type":"LineString","coordinates":[[227.23,342.94],[232.34,327.17],[234.45,319.15],[233.25,295.3],[233.38,294.61],[233.89,291.86]]}},{"type":"Feature","properties":{"id":"w314839089","nombre":"Calle Jai Alai","tipo":"residential"},"geometry":{"type":"LineString","coordinates":[[-51.4,-130.27],[89.19,-136.09],[102.69,-136.65]]}},{"type":"Feature","properties":{"id":"w314839090","nombre":"Calle las Granjas","tipo":"residential"},"geometry":{"type":"LineString","coordinates":[[262.79,202.09],[374.44,236.41],[401.75,246.38],[447.9,267.81],[450.23,269.91],[452.86,274.16]]}},{"type":"Feature","properties":{"id":"w314839093","nombre":"Calle San Francisco Javier","tipo":"residential"},"geometry":{"type":"LineString","coordinates":[[-396.7,62.73],[-384.78,62.43],[-381.64,62.31],[-357.13,61.32],[-182.49,54.81],[-174.96,54.53],[-168.54,54.24],[-49.55,48.96],[-42.58,48.65],[-34.45,48.4],[34.98,46.29],[98.38,44.38],[110.39,44.01],[123.17,43.55],[241.42,39.21],[252.78,38.79],[261.93,38.37],[383.47,32.78],[393.6,32.32],[399.18,32.17],[402.16,32.06],[519.61,27.71]]}},{"type":"Feature","properties":{"id":"w314839342","nombre":"Calle Gustavo Adolfo Bécquer","tipo":"residential"},"geometry":{"type":"LineString","coordinates":[[-177.32,12.89],[-177.03,17.86],[-175.44,46.14],[-174.96,54.53],[-174.68,62.24],[-172.23,128.64],[-168.74,201.64],[-167.57,238.07],[-167.35,245.14]]}},{"type":"Feature","properties":{"id":"w314839343","nombre":"Calle San Roque","tipo":"residential"},"geometry":{"type":"LineString","coordinates":[[-120.33,243.35],[-119.05,245.96],[-114.73,249.01],[-87.79,256.22],[-38.86,267.33],[-32.77,268.71],[-11.73,275.79],[12.02,283.91],[58.18,298.5],[98.27,311.28],[114.16,316.35],[148.38,325.4]]}},{"type":"Feature","properties":{"id":"w315290184","nombre":"Calle Honda","tipo":"residential"},"geometry":{"type":"LineString","coordinates":[[240.53,369.18],[317.77,411.95],[326.91,417.02],[366.25,438.79],[400.58,447.69]]}},{"type":"Feature","properties":{"id":"w315290185","nombre":"Calle Iglesia","tipo":"residential"},"geometry":{"type":"LineString","coordinates":[[252.53,354.73],[255.54,355.68],[260.01,355.85],[268.06,357.57],[313.97,365.17],[349.76,365.32],[359.64,362.97]]}},{"type":"Feature","properties":{"id":"w315290186","nombre":"Calle Juan XXIII","tipo":"residential"},"geometry":{"type":"LineString","coordinates":[[-32.77,268.71],[-20.88,266.78],[-9.63,265.77],[-6.04,265.62],[105.27,261.08],[111.57,260.83],[115.65,261.54],[177.14,271.98],[227.0,288.51],[230.19,290.06],[233.89,291.86]]}},{"type":"Feature","properties":{"id":"w315290187","nombre":"Calle Príncipe de Viana","tipo":"residential"},"geometry":{"type":"LineString","coordinates":[[440.25,315.71],[445.43,382.51],[443.87,395.43],[443.36,398.34],[442.99,400.43],[442.98,429.36],[442.8,447.03],[441.51,449.67]]}},{"type":"Feature","properties":{"id":"w315291727","nombre":"Calle San Francisco Javier","tipo":"residential"},"geometry":{"type":"LineString","coordinates":[[-397.95,20.22],[-396.85,57.73],[-396.7,62.73]]}},{"type":"Feature","properties":{"id":"w315291728","nombre":"Calle Jai Alai","tipo":"residential"},"geometry":{"type":"LineString","coordinates":[[102.69,-136.65],[113.27,-137.74],[118.01,-141.54],[122.26,-148.4],[158.92,-205.11],[159.2,-206.23],[160.85,-212.94],[162.66,-245.38],[163.84,-255.48]]}},{"type":"Feature","properties":{"id":"w316933594","nombre":"Calle Bardenas Reales","tipo":"residential"},"geometry":{"type":"LineString","coordinates":[[-51.4,-130.27],[-47.53,-60.69],[-44.28,-1.31],[-43.77,7.91],[-43.56,15.05],[-42.8,41.26],[-42.58,48.65],[-42.14,57.07],[-38.63,123.37],[-36.0,196.3],[-33.83,239.65],[-32.93,261.45],[-32.77,268.71]]}},{"type":"Feature","properties":{"id":"w316933601","nombre":"Calle la Vicera","tipo":"residential"},"geometry":{"type":"LineString","coordinates":[[118.13,233.52],[112.83,255.58],[111.57,260.83],[110.67,264.24],[98.27,311.28]]}},{"type":"Feature","properties":{"id":"w316933938","nombre":"Calle Iglesia","tipo":"residential"},"geometry":{"type":"LineString","coordinates":[[313.97,365.17],[313.63,369.3],[314.49,374.1],[320.82,380.69],[339.12,393.19],[393.34,430.24]]}},{"type":"Feature","properties":{"id":"w316934229","nombre":"Calle Fragua","tipo":"living_street"},"geometry":{"type":"LineString","coordinates":[[148.38,325.4],[147.06,328.42],[139.33,348.61],[136.48,351.84],[131.64,354.54],[125.38,354.51],[103.01,348.26]]}},{"type":"Feature","properties":{"id":"w317360367","nombre":"Calle del Canal","tipo":"residential","superficie":"unpaved"},"geometry":{"type":"LineString","coordinates":[[-432.56,135.54],[-429.2,138.81],[-357.18,188.55],[-347.12,196.53],[-336.01,204.86],[-324.81,210.87],[-305.27,217.71],[-296.56,222.27],[-278.86,234.22],[-256.86,249.02],[-213.48,267.31],[-171.95,280.88],[-60.86,313.62],[-36.66,321.57],[5.57,338.5],[8.95,339.87],[87.63,366.9]]}},{"type":"Feature","properties":{"id":"w317362512","nombre":"Calle Juan XXIII","tipo":"residential"},"geometry":{"type":"LineString","coordinates":[[460.93,457.56],[471.41,410.18],[471.52,408.47],[471.58,407.53],[470.99,405.82],[443.87,395.43]]}},{"type":"Feature","properties":{"id":"w317362521","nombre":"Camino de la Canosa","tipo":"unclassified"},"geometry":{"type":"LineString","coordinates":[[288.55,-700.0],[270.36,-665.1],[191.79,-439.85],[179.67,-386.96],[168.03,-289.41],[163.84,-255.48]]}},{"type":"Feature","properties":{"id":"w317362526","nombre":"Calle Jai Alai","tipo":"unclassified"},"geometry":{"type":"LineString","coordinates":[[-247.42,-116.03],[-338.06,-113.64],[-377.42,-112.47],[-393.21,-107.69],[-403.24,-98.34],[-412.09,-79.92],[-414.85,-20.25],[-417.69,-6.82]]}},{"type":"Feature","properties":{"id":"w320604074","nombre":"Escorredero Principal","tipo":"unclassified"},"geometry":{"type":"LineString","coordinates":[[87.63,366.9],[87.35,367.57],[86.79,368.9]]}},{"type":"Feature","properties":{"id":"w320604076","nombre":"Escorredero Principal","tipo":"unclassified","puente":"yes","capa":"1"},"geometry":{"type":"LineString","coordinates":[[86.79,368.9],[86.14,370.83],[84.16,376.77]]}},{"type":"Feature","properties":{"id":"w320604092","nombre":"Calle Jai Alai","tipo":"unclassified","sentido_unico":"yes","superficie":"ground"},"geometry":{"type":"LineString","coordinates":[[-417.69,-6.82],[-409.63,-1.52],[-407.89,-0.37],[-404.52,3.77],[-399.94,15.28],[-397.95,20.22]]}},{"type":"Feature","properties":{"id":"w543789449","nombre":"PVT","tipo":"unclassified"},"geometry":{"type":"LineString","coordinates":[[-729.45,-373.82],[-748.76,-387.53],[-750.0,-388.44]]}},{"type":"Feature","properties":{"id":"w543789451","nombre":"PVT","tipo":"unclassified"},"geometry":{"type":"LineString","coordinates":[[-750.0,-315.3],[-726.41,-346.35]]}},{"type":"Feature","properties":{"id":"w543789452","tipo":"unclassified"},"geometry":{"type":"LineString","coordinates":[[-708.96,-344.19],[-703.74,-347.27],[-699.78,-351.87],[-697.53,-357.49],[-697.23,-363.54],[-698.9,-369.36],[-702.37,-374.33],[-707.23,-377.91],[-712.99,-379.73],[-719.04,-379.61],[-724.72,-377.57],[-729.45,-373.82],[-732.79,-368.57],[-734.19,-362.52],[-733.52,-356.34],[-730.81,-350.75],[-726.41,-346.35],[-720.95,-343.71],[-714.91,-342.95],[-708.96,-344.19]]}},{"type":"Feature","properties":{"id":"w666973940","nombre":"Polígono Ganadero","tipo":"unclassified"},"geometry":{"type":"LineString","coordinates":[[508.78,348.78],[518.89,328.48],[550.37,265.22],[581.5,196.27],[604.92,148.27],[623.76,109.67],[655.2,46.29],[677.11,2.1],[689.59,-16.23],[719.55,-75.7],[746.86,-129.91],[750.0,-135.65]]}},{"type":"Feature","properties":{"id":"w666973942","nombre":"Calle Caballeros de Jerusalén","tipo":"residential"},"geometry":{"type":"LineString","coordinates":[[396.17,106.22],[401.61,106.05],[404.71,105.92],[496.04,102.02],[529.97,100.57]]}},{"type":"Feature","properties":{"id":"w666973943","nombre":"Polígono Ganadero","tipo":"unclassified"},"geometry":{"type":"LineString","coordinates":[[529.97,100.57],[549.34,100.96],[579.27,101.58],[594.82,102.03],[610.87,103.86],[623.76,109.67]]}}]}