{"type":"FeatureCollection","sistema":"local Cabanillas Drive: [x, z] en metros, x = E − E_centro, z = −(N − N_centro)","fuente":"© colaboradores de OpenStreetMap (ODbL)","features":[{"type":"Feature","properties":{"id":"w1357556092","tipo":"track","superficie":"unpaved","velocidad_max":"20"},"geometry":{"type":"LineString","coordinates":[[-527.06,-23.99],[-524.6,-39.16],[-516.57,-58.26],[-509.2,-76.02],[-498.76,-90.51],[-487.34,-106.01],[-477.97,-124.47],[-479.72,-148.73],[-484.69,-165.95],[-495.3,-180.74],[-505.8,-189.21],[-535.75,-202.34],[-559.03,-216.58],[-565.59,-229.12],[-566.08,-238.08],[-560.95,-250.49],[-508.88,-330.99],[-425.19,-455.82]]}},{"type":"Feature","properties":{"id":"w1357556109","tipo":"track","superficie":"unpaved","velocidad_max":"10"},"geometry":{"type":"LineString","coordinates":[[-174.0,-446.88],[-168.33,-442.03],[-109.59,-396.63]]}},{"type":"Feature","properties":{"id":"w1357556111","tipo":"track","superficie":"unpaved","velocidad_max":"10"},"geometry":{"type":"LineString","coordinates":[[-31.2,-675.59],[-13.85,-663.87],[31.96,-630.95]]}},{"type":"Feature","properties":{"id":"w1357556112","tipo":"track","superficie":"unpaved","velocidad_max":"10"},"geometry":{"type":"LineString","coordinates":[[-308.5,-328.22],[-313.94,-300.0],[-317.46,-280.76]]}},{"type":"Feature","properties":{"id":"w1357556113","tipo":"track","superficie":"unpaved","velocidad_max":"10"},"geometry":{"type":"LineString","coordinates":[[-209.31,-392.63],[-178.51,-368.7],[-114.37,-320.28]]}},{"type":"Feature","properties":{"id":"w1357556114","tipo":"track","superficie":"unpaved","velocidad_max":"10"},"geometry":{"type":"LineString","coordinates":[[710.97,-567.26],[722.98,-562.28],[750.0,-551.73]]}},{"type":"Feature","properties":{"id":"w1357556115","tipo":"track","superficie":"unpaved","velocidad_max":"10"},"geometry":{"type":"LineString","coordinates":[[-73.11,-609.37],[-56.93,-599.28],[-7.12,-562.52]]}},{"type":"Feature","properties":{"id":"w1357556116","tipo":"track","superficie":"unpaved","velocidad_max":"10"},"geometry":{"type":"LineString","coordinates":[[115.9,-624.78],[170.96,-593.27]]}},{"type":"Feature","properties":{"id":"w1357556118","tipo":"track","superficie":"unpaved","velocidad_max":"10"},"geometry":{"type":"LineString","coordinates":[[-191.71,-419.13],[-181.76,-412.31],[-125.96,-368.81]]}},{"type":"Feature","properties":{"id":"w1357556121","tipo":"track","superficie":"unpaved","velocidad_max":"10"},"geometry":{"type":"LineString","coordinates":[[-89.35,-583.41],[-62.59,-563.93],[-53.0,-558.06],[-43.2,-572.23]]}},{"type":"Feature","properties":{"id":"w1357556122","tipo":"track","superficie":"unpaved","velocidad_max":"10"},"geometry":{"type":"LineString","coordinates":[[42.31,-536.13],[110.42,-495.39]]}},{"type":"Feature","properties":{"id":"w1357556123","tipo":"track","superficie":"unpaved","velocidad_max":"10"},"geometry":{"type":"LineString","coordinates":[[-106.18,-554.69],[-42.4,-509.31]]}},{"type":"Feature","properties":{"id":"w1357556124","tipo":"track","superficie":"unpaved","velocidad_max":"10"},"geometry":{"type":"LineString","coordinates":[[36.21,-495.42],[91.34,-463.98]]}},{"type":"Feature","properties":{"id":"w1357556125","tipo":"track","superficie":"unpaved","velocidad_max":"10"},"geometry":{"type":"LineString","coordinates":[[-140.07,-500.6],[-76.51,-454.62]]}},{"type":"Feature","properties":{"id":"w1357556126","tipo":"track","superficie":"unpaved","velocidad_max":"10"},"geometry":{"type":"LineString","coordinates":[[14.44,-466.25],[70.65,-432.14]]}},{"type":"Feature","properties":{"id":"w1357556128","tipo":"track","superficie":"unpaved","velocidad_max":"10"},"geometry":{"type":"LineString","coordinates":[[-226.13,-366.46],[-213.01,-356.52],[-159.46,-316.84]]}},{"type":"Feature","properties":{"id":"w1357556129","tipo":"track","superficie":"unpaved","velocidad_max":"10"},"geometry":{"type":"LineString","coordinates":[[224.18,-676.38],[185.53,-700.0]]}},{"type":"Feature","properties":{"id":"w1357556132","tipo":"track","superficie":"unpaved","velocidad_max":"10"},"geometry":{"type":"LineString","coordinates":[[127.8,-662.49],[193.14,-627.21]]}},{"type":"Feature","properties":{"id":"w1357556133","tipo":"track","superficie":"unpaved","velocidad_max":"10"},"geometry":{"type":"LineString","coordinates":[[-55.28,-637.63],[4.09,-596.38]]}},{"type":"Feature","properties":{"id":"w1357556134","tipo":"track","superficie":"unpaved","velocidad_max":"10"},"geometry":{"type":"LineString","coordinates":[[81.17,-600.74],[151.71,-562.69]]}},{"type":"Feature","properties":{"id":"w1357556135","tipo":"track","superficie":"unpaved","velocidad_max":"10"},"geometry":{"type":"LineString","coordinates":[[-123.47,-528.15],[-90.5,-505.55],[-59.48,-482.98]]}},{"type":"Feature","properties":{"id":"w1357556136","tipo":"track","superficie":"unpaved","velocidad_max":"10"},"geometry":{"type":"LineString","coordinates":[[-157.27,-474.1],[-94.89,-425.95]]}},{"type":"Feature","properties":{"id":"w1422097035","nombre":"Gran Travesía Cañada Roncaleses","tipo":"cycleway"},"geometry":{"type":"LineString","coordinates":[[392.18,-8.36],[394.28,-6.38],[396.54,-4.91],[397.69,-3.48],[398.05,-1.68],[398.81,21.75],[399.18,32.17],[399.35,40.04],[399.4,42.68],[401.26,93.64],[401.61,106.05],[401.91,115.0],[403.69,170.01],[403.8,173.03],[403.83,179.46],[403.83,183.12],[403.61,188.9],[405.29,196.63],[405.75,227.1],[406.49,240.09],[405.9,242.17],[401.75,246.38]]}},{"type":"Feature","properties":{"id":"w1427290537","tipo":"track"},"geometry":{"type":"LineString","coordinates":[[581.5,196.27],[656.03,236.62],[662.77,236.5],[667.64,230.4],[688.85,191.0],[708.15,155.12],[741.21,93.65],[750.0,77.33]]}},{"type":"Feature","properties":{"id":"w1427290538","tipo":"track"},"geometry":{"type":"LineString","coordinates":[[604.92,148.27],[688.85,191.0]]}},{"type":"Feature","properties":{"id":"w1427290539","tipo":"track"},"geometry":{"type":"LineString","coordinates":[[655.2,46.29],[741.21,93.65],[750.0,98.49]]}},{"type":"Feature","properties":{"id":"w1427290540","tipo":"track"},"geometry":{"type":"LineString","coordinates":[[689.59,-16.23],[750.0,16.28]]}},{"type":"Feature","properties":{"id":"w1427290541","tipo":"track"},"geometry":{"type":"LineString","coordinates":[[746.86,-129.91],[750.0,-128.23]]}},{"type":"Feature","properties":{"id":"w1428535686","tipo":"footway"},"geometry":{"type":"LineString","coordinates":[[-44.95,-138.19],[88.89,-143.48],[94.85,-143.72],[96.28,-144.01],[97.06,-145.09],[95.84,-174.95]]}},{"type":"Feature","properties":{"id":"w1428535687","tipo":"footway"},"geometry":{"type":"LineString","coordinates":[[114.15,-145.93],[124.9,-162.12],[127.5,-166.04],[136.52,-180.8],[147.03,-198.02],[150.12,-203.08],[152.13,-206.33]]}},{"type":"Feature","properties":{"id":"w1428535688","tipo":"footway"},"geometry":{"type":"LineString","coordinates":[[136.96,-162.28],[144.72,-158.76],[149.92,-157.51],[154.41,-157.32],[158.51,-158.19],[161.52,-160.12],[163.51,-163.81],[164.35,-167.39],[162.92,-172.36],[158.41,-179.68],[155.85,-182.93],[152.3,-186.08]]}},{"type":"Feature","properties":{"id":"w1428535689","tipo":"footway"},"geometry":{"type":"LineString","coordinates":[[117.59,-133.77],[121.06,-139.44],[136.96,-162.28],[152.3,-186.08],[156.74,-193.57],[160.81,-201.3],[163.28,-206.08]]}},{"type":"Feature","properties":{"id":"w1428535691","tipo":"path"},"geometry":{"type":"LineString","coordinates":[[147.03,-198.02],[139.83,-198.33],[130.7,-198.53],[127.87,-197.72],[124.73,-196.83],[121.92,-193.74],[120.56,-191.58],[118.87,-188.87],[117.53,-183.5],[118.32,-178.88],[121.62,-169.84],[124.9,-162.12]]}},{"type":"Feature","properties":{"id":"w1428535692","tipo":"path"},"geometry":{"type":"LineString","coordinates":[[120.56,-191.58],[122.55,-190.3]]}},{"type":"Feature","properties":{"id":"w1428535693","tipo":"path"},"geometry":{"type":"LineString","coordinates":[[133.34,-182.76],[136.52,-180.8]]}},{"type":"Feature","properties":{"id":"w1428535694","tipo":"path"},"geometry":{"type":"LineString","coordinates":[[127.87,-197.72],[125.78,-207.99],[123.72,-218.13],[121.41,-234.31],[123.98,-242.46],[129.31,-248.23],[135.35,-252.25],[138.98,-253.67],[143.93,-257.92]]}},{"type":"Feature","properties":{"id":"w1428535695","tipo":"path"},"geometry":{"type":"LineString","coordinates":[[125.78,-207.99],[127.5,-211.84],[132.31,-215.98],[139.96,-220.57],[145.39,-228.24],[147.68,-237.19],[143.19,-246.04],[140.47,-249.98],[135.35,-252.25]]}},{"type":"Feature","properties":{"id":"w1428535697","tipo":"footway"},"geometry":{"type":"LineString","coordinates":[[98.29,-127.71],[103.0,-127.82],[114.13,-128.09]]}},{"type":"Feature","properties":{"id":"w1428535698","tipo":"footway"},"geometry":{"type":"LineString","coordinates":[[89.39,-131.05],[89.19,-136.09],[88.89,-143.48]]}},{"type":"Feature","properties":{"id":"w1428535699","tipo":"footway"},"geometry":{"type":"LineString","coordinates":[[-44.69,-124.8],[89.39,-131.05],[94.85,-130.63],[98.29,-127.71],[100.84,-72.2],[99.77,-70.62],[91.78,-70.3],[-41.01,-64.93],[-43.37,-66.45],[-45.61,-122.52],[-44.69,-124.8]]}},{"type":"Feature","properties":{"id":"w1428535738","tipo":"footway"},"geometry":{"type":"LineString","coordinates":[[-157.96,7.12],[-157.71,12.17],[-157.5,16.71]]}},{"type":"Feature","properties":{"id":"w1428535739","tipo":"footway"},"geometry":{"type":"LineString","coordinates":[[-55.82,-130.21],[-48.45,-2.14],[-48.85,-1.11],[-49.29,0.01],[-51.05,1.09],[-52.65,2.07],[-157.96,7.12],[-238.63,9.69]]}},{"type":"Feature","properties":{"id":"w1428535743","tipo":"footway"},"geometry":{"type":"LineString","coordinates":[[-48.85,-1.11],[-44.28,-1.31],[-41.28,-1.5]]}},{"type":"Feature","properties":{"id":"w1428535744","tipo":"footway"},"geometry":{"type":"LineString","coordinates":[[-51.05,1.09],[-50.65,8.17],[-50.43,12.28]]}},{"type":"Feature","properties":{"id":"w1428535745","tipo":"footway"},"geometry":{"type":"LineString","coordinates":[[-47.48,15.11],[-43.56,15.05],[-38.75,14.96]]}},{"type":"Feature","properties":{"id":"w1428535746","tipo":"footway"},"geometry":{"type":"LineString","coordinates":[[-36.48,1.86],[-36.24,7.64],[-36.05,12.07]]}},{"type":"Feature","properties":{"id":"w1428958596","tipo":"footway"},"geometry":{"type":"LineString","coordinates":[[91.78,-70.3],[92.0,-65.75],[92.26,-60.29]]}},{"type":"Feature","properties":{"id":"w1428958597","tipo":"footway"},"geometry":{"type":"LineString","coordinates":[[-36.48,1.86],[-38.8,1.97],[-40.41,0.96],[-41.28,-1.5],[-42.88,-52.72],[-42.28,-53.96],[92.26,-60.29],[99.06,-60.56],[100.31,-60.11],[102.94,-6.07],[102.74,-5.2],[102.04,-4.67],[96.84,-4.42],[-36.48,1.86]]}},{"type":"Feature","properties":{"id":"w1428958598","tipo":"footway"},"geometry":{"type":"LineString","coordinates":[[96.84,-4.42],[97.15,2.81],[97.33,6.91]]}},{"type":"Feature","properties":{"id":"w1428958599","tipo":"footway"},"geometry":{"type":"LineString","coordinates":[[102.94,-6.07],[108.11,-6.3],[114.86,-6.61]]}},{"type":"Feature","properties":{"id":"w1428958600","tipo":"footway"},"geometry":{"type":"LineString","coordinates":[[111.16,-119.69],[113.24,-73.24],[114.67,-71.99],[238.68,-76.58],[239.95,-77.77],[238.28,-126.65]]}},{"type":"Feature","properties":{"id":"w1428958601","tipo":"footway"},"geometry":{"type":"LineString","coordinates":[[114.13,-128.09],[117.59,-133.77]]}},{"type":"Feature","properties":{"id":"w1428958602","tipo":"footway"},"geometry":{"type":"LineString","coordinates":[[114.13,-128.09],[113.59,-127.07],[112.01,-124.15],[111.16,-119.69]]}},{"type":"Feature","properties":{"id":"w1428958630","tipo":"track"},"geometry":{"type":"LineString","coordinates":[[249.79,-39.07],[255.32,-39.26],[385.31,-43.85],[391.46,-44.07],[394.31,-45.05],[400.78,-55.44]]}},{"type":"Feature","properties":{"id":"w1428958631","tipo":"footway"},"geometry":{"type":"LineString","coordinates":[[255.32,-39.26],[256.3,-12.75],[256.35,-11.28],[257.45,-9.96],[259.61,-10.04],[382.45,-14.76],[384.61,-14.84],[385.8,-16.21],[385.31,-43.85]]}},{"type":"Feature","properties":{"id":"w1428958632","tipo":"footway"},"geometry":{"type":"LineString","coordinates":[[242.33,-12.25],[250.81,-12.55],[256.3,-12.75]]}},{"type":"Feature","properties":{"id":"w1428958633","tipo":"footway"},"geometry":{"type":"LineString","coordinates":[[259.61,-10.04],[259.89,-3.34],[260.04,0.06]]}},{"type":"Feature","properties":{"id":"w1428958634","tipo":"footway"},"geometry":{"type":"LineString","coordinates":[[244.16,3.53],[251.42,3.35],[257.54,3.05]]}},{"type":"Feature","properties":{"id":"w1428958651","tipo":"footway"},"geometry":{"type":"LineString","coordinates":[[382.45,-14.76],[382.71,-8.0],[382.87,-4.33]]}},{"type":"Feature","properties":{"id":"w1428958652","tipo":"footway"},"geometry":{"type":"LineString","coordinates":[[120.46,-4.04],[117.06,-3.98],[115.65,-4.89],[114.86,-6.61],[112.86,-59.23],[113.76,-60.95],[239.11,-65.89],[240.85,-64.06],[242.33,-12.25],[242.54,-10.31],[240.24,-9.35],[120.46,-4.04]]}},{"type":"Feature","properties":{"id":"w1428958653","tipo":"footway"},"geometry":{"type":"LineString","coordinates":[[120.46,-4.04],[120.76,1.93],[120.93,5.19]]}},{"type":"Feature","properties":{"id":"w1428958654","tipo":"footway"},"geometry":{"type":"LineString","coordinates":[[240.24,-9.35],[240.36,-2.6],[240.41,0.67]]}},{"type":"Feature","properties":{"id":"w1430838640","tipo":"footway"},"geometry":{"type":"LineString","coordinates":[[-442.74,27.43],[-440.85,60.03]]}},{"type":"Feature","properties":{"id":"w1430838641","tipo":"steps"},"geometry":{"type":"LineString","coordinates":[[-442.74,27.43],[-443.58,27.96],[-446.36,30.33]]}},{"type":"Feature","properties":{"id":"w1430838643","tipo":"footway"},"geometry":{"type":"LineString","coordinates":[[-442.74,27.43],[-418.87,26.46],[-403.07,25.84],[-402.13,27.14],[-401.19,57.82],[-402.2,58.55],[-440.85,60.03]]}},{"type":"Feature","properties":{"id":"w1430838644","tipo":"footway"},"geometry":{"type":"LineString","coordinates":[[-419.46,16.15],[-419.19,20.81],[-418.87,26.46]]}},{"type":"Feature","properties":{"id":"w1430838646","tipo":"footway"},"geometry":{"type":"LineString","coordinates":[[-469.08,-10.31],[-467.47,-6.36],[-464.62,-1.02],[-460.98,3.08],[-459.12,4.68],[-455.49,7.78],[-453.61,10.69],[-452.56,13.47],[-451.44,17.57]]}},{"type":"Feature","properties":{"id":"w1430838647","tipo":"footway"},"geometry":{"type":"LineString","coordinates":[[-451.44,17.57],[-419.46,16.15],[-399.94,15.28],[-367.51,14.5],[-248.46,10.22]]}},{"type":"Feature","properties":{"id":"w1430838655","tipo":"footway"},"geometry":{"type":"LineString","coordinates":[[-248.46,10.22],[-242.81,9.92],[-238.63,9.69]]}},{"type":"Feature","properties":{"id":"w1430838694","tipo":"footway"},"geometry":{"type":"LineString","coordinates":[[-390.31,57.71],[-392.07,57.62],[-392.92,56.24],[-393.91,25.66],[-392.76,24.36],[-182.41,17.36],[-180.87,18.03],[-179.95,46.4],[-179.88,48.38],[-181.27,49.57],[-182.71,49.63],[-381.73,57.38],[-390.31,57.71]]}},{"type":"Feature","properties":{"id":"w1430838695","tipo":"footway"},"geometry":{"type":"LineString","coordinates":[[-381.73,57.38],[-381.64,62.31],[-381.57,66.79]]}},{"type":"Feature","properties":{"id":"w1430838696","tipo":"footway"},"geometry":{"type":"LineString","coordinates":[[-179.95,46.4],[-175.44,46.14],[-171.63,46.02]]}},{"type":"Feature","properties":{"id":"w1430838697","tipo":"footway"},"geometry":{"type":"LineString","coordinates":[[-182.71,49.63],[-182.49,54.81],[-182.3,59.22]]}},{"type":"Feature","properties":{"id":"w1430838698","tipo":"footway"},"geometry":{"type":"LineString","coordinates":[[-392.07,57.62],[-396.85,57.73],[-401.19,57.82]]}},{"type":"Feature","properties":{"id":"w1430838699","tipo":"footway"},"geometry":{"type":"LineString","coordinates":[[-180.87,18.03],[-177.03,17.86],[-172.94,17.77]]}},{"type":"Feature","properties":{"id":"w1430838700","tipo":"footway"},"geometry":{"type":"LineString","coordinates":[[-168.76,49.35],[-168.54,54.24],[-168.36,58.57]]}},{"type":"Feature","properties":{"id":"w1430838721","tipo":"footway"},"geometry":{"type":"LineString","coordinates":[[-168.76,49.35],[-170.33,49.39],[-171.28,48.35],[-171.63,46.02],[-172.94,17.77],[-171.95,16.96],[-157.5,16.71],[-50.43,12.28],[-48.59,12.38],[-47.63,13.42],[-47.48,15.11],[-46.5,41.42],[-46.41,43.64],[-47.34,44.48],[-49.79,44.57],[-168.76,49.35]]}},{"type":"Feature","properties":{"id":"w1430838722","tipo":"footway"},"geometry":{"type":"LineString","coordinates":[[-46.5,41.42],[-42.8,41.26],[-38.08,41.21]]}},{"type":"Feature","properties":{"id":"w1430838723","tipo":"footway"},"geometry":{"type":"LineString","coordinates":[[-49.79,44.57],[-49.55,48.96],[-49.27,54.19]]}},{"type":"Feature","properties":{"id":"w1431146113","tipo":"footway"},"geometry":{"type":"LineString","coordinates":[[97.33,6.91],[99.35,6.89],[100.28,7.89],[100.33,8.98],[101.52,35.79],[101.62,38.07],[100.51,39.2],[98.1,39.28],[-34.73,43.89],[-36.94,44.11],[-37.94,43.24],[-38.08,41.21],[-38.75,14.96],[-38.72,12.9],[-37.87,12.15],[-36.05,12.07],[97.33,6.91]]}},{"type":"Feature","properties":{"id":"w1431146114","tipo":"footway"},"geometry":{"type":"LineString","coordinates":[[101.52,35.79],[110.01,35.51],[119.34,35.22]]}},{"type":"Feature","properties":{"id":"w1431146115","tipo":"footway"},"geometry":{"type":"LineString","coordinates":[[98.1,39.28],[98.38,44.38],[98.6,48.23]]}},{"type":"Feature","properties":{"id":"w1431146116","tipo":"footway"},"geometry":{"type":"LineString","coordinates":[[-34.73,43.89],[-34.45,48.4],[-34.16,53.15]]}},{"type":"Feature","properties":{"id":"w1431146117","tipo":"footway"},"geometry":{"type":"LineString","coordinates":[[100.33,8.98],[108.81,8.56],[118.74,8.05]]}},{"type":"Feature","properties":{"id":"w1431146140","tipo":"footway"},"geometry":{"type":"LineString","coordinates":[[122.88,38.03],[120.87,38.21],[119.34,35.22],[118.74,8.05],[118.31,5.9],[120.93,5.19],[240.41,0.67],[243.36,0.81],[244.16,3.53],[245.1,30.22],[244.22,32.85],[241.11,32.99],[122.88,38.03]]}},{"type":"Feature","properties":{"id":"w1431146141","tipo":"footway"},"geometry":{"type":"LineString","coordinates":[[122.88,38.03],[123.17,43.55],[123.35,46.96]]}},{"type":"Feature","properties":{"id":"w1431146142","tipo":"footway"},"geometry":{"type":"LineString","coordinates":[[245.1,30.22],[252.44,29.91],[257.77,29.69]]}},{"type":"Feature","properties":{"id":"w1431146143","tipo":"footway"},"geometry":{"type":"LineString","coordinates":[[241.11,32.99],[241.42,39.21],[241.61,42.92]]}},{"type":"Feature","properties":{"id":"w1431146170","tipo":"footway"},"geometry":{"type":"LineString","coordinates":[[383.39,27.62],[383.47,32.78],[383.67,37.9]]}},{"type":"Feature","properties":{"id":"w1431146171","tipo":"footway"},"geometry":{"type":"LineString","coordinates":[[382.87,-4.33],[382.93,-0.85],[383.9,25.57],[383.39,27.62]]}},{"type":"Feature","properties":{"id":"w1431146172","tipo":"footway"},"geometry":{"type":"LineString","coordinates":[[383.67,37.9],[383.82,40.73],[386.85,99.72]]}},{"type":"Feature","properties":{"id":"w1431146173","tipo":"footway"},"geometry":{"type":"LineString","coordinates":[[386.85,99.72],[387.07,106.58],[387.27,112.03]]}},{"type":"Feature","properties":{"id":"w1431146174","tipo":"footway"},"geometry":{"type":"LineString","coordinates":[[387.27,112.03],[387.4,115.59],[389.49,170.51],[389.68,175.33]]}},{"type":"Feature","properties":{"id":"w1431146175","tipo":"footway"},"geometry":{"type":"LineString","coordinates":[[389.68,175.33],[389.91,179.96],[390.1,184.17]]}},{"type":"Feature","properties":{"id":"w1431146176","tipo":"footway"},"geometry":{"type":"LineString","coordinates":[[382.87,-4.33],[365.71,-3.89],[314.84,-2.47],[260.04,0.06],[257.51,0.51],[257.54,3.05],[257.77,29.69],[258.09,32.3],[260.12,32.93],[261.67,32.86],[366.35,28.28],[383.39,27.62]]}},{"type":"Feature","properties":{"id":"w1431146177","tipo":"footway"},"geometry":{"type":"LineString","coordinates":[[382.93,-0.85],[392.43,-1.37],[398.05,-1.68],[400.84,-1.83]]}},{"type":"Feature","properties":{"id":"w1431146178","tipo":"footway"},"geometry":{"type":"LineString","coordinates":[[261.67,32.86],[261.93,38.37],[262.09,41.63]]}},{"type":"Feature","properties":{"id":"w1431146179","tipo":"footway"},"geometry":{"type":"LineString","coordinates":[[400.84,-1.83],[401.97,27.13]]}},{"type":"Feature","properties":{"id":"w1431146180","tipo":"footway"},"geometry":{"type":"LineString","coordinates":[[401.97,27.13],[402.16,32.06],[402.44,39.9],[399.35,40.04],[393.88,40.28],[383.82,40.73]]}},{"type":"Feature","properties":{"id":"w1431146181","tipo":"footway"},"geometry":{"type":"LineString","coordinates":[[402.44,39.9],[404.59,99.02]]}},{"type":"Feature","properties":{"id":"w1431146182","tipo":"footway"},"geometry":{"type":"LineString","coordinates":[[387.4,115.59],[396.48,115.22],[401.91,115.0],[404.85,114.88],[404.71,105.92],[404.59,99.02]]}},{"type":"Feature","properties":{"id":"w1431146183","tipo":"footway"},"geometry":{"type":"LineString","coordinates":[[404.85,114.88],[406.52,169.92]]}},{"type":"Feature","properties":{"id":"w1431146184","tipo":"footway"},"geometry":{"type":"LineString","coordinates":[[389.49,170.51],[398.39,170.2],[403.69,170.01],[406.52,169.92],[406.81,179.35],[407.0,185.26]]}},{"type":"Feature","properties":{"id":"w1431146185","tipo":"footway"},"geometry":{"type":"LineString","coordinates":[[407.0,185.26],[409.16,239.51],[409.21,242.15],[410.88,244.87],[456.79,264.19]]}},{"type":"Feature","properties":{"id":"w1432250185","tipo":"footway"},"geometry":{"type":"LineString","coordinates":[[-381.57,66.79],[-385.95,66.98],[-387.17,67.78],[-395.63,79.79],[-396.5,83.04],[-395.66,86.73],[-390.45,92.65],[-387.25,94.85],[-383.26,97.61],[-371.06,107.11],[-348.42,126.74],[-345.61,128.4],[-309.59,127.14],[-292.74,126.57],[-226.12,123.88],[-181.61,122.39],[-178.51,122.29],[-176.68,120.72],[-178.73,62.39],[-178.79,60.81],[-180.06,59.13],[-182.3,59.22],[-283.62,62.91],[-381.57,66.79]]}},{"type":"Feature","properties":{"id":"w1432250186","tipo":"footway"},"geometry":{"type":"LineString","coordinates":[[-178.73,62.39],[-174.68,62.24],[-170.53,62.1]]}},{"type":"Feature","properties":{"id":"w1432250187","tipo":"footway"},"geometry":{"type":"LineString","coordinates":[[-181.61,122.39],[-181.28,128.93],[-181.18,133.5]]}},{"type":"Feature","properties":{"id":"w1432250188","tipo":"footway"},"geometry":{"type":"LineString","coordinates":[[-309.59,127.14],[-309.31,133.03],[-308.96,140.01]]}},{"type":"Feature","properties":{"id":"w1432250189","tipo":"footway"},"geometry":{"type":"LineString","coordinates":[[-395.44,106.75],[-391.57,101.14],[-387.25,94.85]]}},{"type":"Feature","properties":{"id":"w1432250215","tipo":"footway"},"geometry":{"type":"LineString","coordinates":[[-170.53,62.1],[-168.51,120.37],[-167.11,121.11],[-160.36,120.88],[-44.06,116.84],[-43.0,115.43],[-45.49,57.31],[-45.6,54.76],[-46.58,54.06],[-49.27,54.19],[-168.36,58.57],[-170.48,59.72],[-170.53,62.1]]}},{"type":"Feature","properties":{"id":"w1432250216","tipo":"footway"},"geometry":{"type":"LineString","coordinates":[[-160.36,120.88],[-160.01,128.16],[-159.74,133.7]]}},{"type":"Feature","properties":{"id":"w1432250217","tipo":"footway"},"geometry":{"type":"LineString","coordinates":[[-45.49,57.31],[-42.14,57.07],[-37.69,56.77]]}},{"type":"Feature","properties":{"id":"w1432250224","nombre":"Plaza de la Constitución","tipo":"pedestrian"},"geometry":{"type":"LineString","coordinates":[[34.98,46.29],[35.14,50.49],[35.76,67.51],[36.46,86.59],[61.37,85.69],[85.08,84.82],[103.55,84.15],[112.16,83.83]]}},{"type":"Feature","properties":{"id":"w1432250226","tipo":"footway"},"geometry":{"type":"LineString","coordinates":[[35.76,67.51],[60.77,66.7],[77.67,66.16]]}},{"type":"Feature","properties":{"id":"w1432250227","tipo":"footway"},"geometry":{"type":"LineString","coordinates":[[61.37,85.69],[60.77,66.7],[60.3,49.55]]}},{"type":"Feature","properties":{"id":"w1432250228","tipo":"footway"},"geometry":{"type":"LineString","coordinates":[[85.08,84.82],[84.57,71.29]]}},{"type":"Feature","properties":{"id":"w1432250229","tipo":"footway"},"geometry":{"type":"LineString","coordinates":[[84.07,59.2],[83.74,48.71]]}},{"type":"Feature","properties":{"id":"w1432250230","tipo":"footway"},"geometry":{"type":"LineString","coordinates":[[89.82,65.16],[94.15,65.09],[102.23,64.95]]}},{"type":"Feature","properties":{"id":"w1432250231","tipo":"footway"},"geometry":{"type":"LineString","coordinates":[[77.67,64.36],[78.2,62.65],[79.21,61.16],[80.6,60.03],[82.27,59.36],[84.07,59.2],[85.84,59.56],[87.43,60.45],[88.69,61.75],[89.51,63.37],[89.82,65.16],[89.59,66.9],[88.88,68.5],[87.74,69.84],[86.26,70.8],[84.57,71.29],[82.67,71.26],[80.87,70.66],[79.33,69.52],[78.24,67.97],[77.67,66.16],[77.67,64.36]]}},{"type":"Feature","properties":{"id":"w1432250247","tipo":"footway"},"geometry":{"type":"LineString","coordinates":[[101.5,51.99],[110.73,51.67],[119.96,51.37]]}},{"type":"Feature","properties":{"id":"w1432250248","tipo":"footway"},"geometry":{"type":"LineString","coordinates":[[101.85,111.92],[102.13,117.83],[102.34,122.7]]}},{"type":"Feature","properties":{"id":"w1432250249","tipo":"footway"},"geometry":{"type":"LineString","coordinates":[[-34.16,53.15],[-36.51,53.43],[-37.41,54.83],[-37.69,56.77],[-35.9,115.68],[-34.64,116.74],[101.85,111.92],[105.72,111.86],[106.47,110.77],[105.19,90.6],[103.93,88.76],[103.55,84.15],[102.23,64.95],[101.5,51.99],[101.41,50.6],[100.47,49.38],[98.6,48.23],[83.74,48.71],[60.3,49.55],[35.14,50.49],[-14.16,52.36],[-34.16,53.15]]}},{"type":"Feature","properties":{"id":"w1432250250","tipo":"footway"},"geometry":{"type":"LineString","coordinates":[[112.16,83.83],[121.24,83.42]]}},{"type":"Feature","properties":{"id":"w1432250283","tipo":"footway"},"geometry":{"type":"LineString","coordinates":[[119.96,51.37],[119.67,49.04],[120.46,47.23],[123.35,46.96],[241.61,42.92],[244.89,43.27],[244.96,45.22],[247.09,104.11],[246.13,105.59],[127.58,110.17],[123.19,110.34],[121.74,108.37],[121.24,83.42],[119.96,51.37]]}},{"type":"Feature","properties":{"id":"w1432250284","tipo":"footway"},"geometry":{"type":"LineString","coordinates":[[127.96,122.21],[127.78,116.72],[127.58,110.17]]}},{"type":"Feature","properties":{"id":"w1432250285","tipo":"footway"},"geometry":{"type":"LineString","coordinates":[[244.96,45.22],[253.0,44.97],[257.05,44.85]]}},{"type":"Feature","properties":{"id":"w1432250286","tipo":"footway"},"geometry":{"type":"LineString","coordinates":[[386.85,99.72],[371.12,100.29],[300.06,102.87],[298.55,104.09],[261.06,105.48],[259.39,104.2],[257.05,44.85],[257.84,43.03],[262.09,41.63],[368.71,38.36],[383.67,37.9]]}},{"type":"Feature","properties":{"id":"w1432508228","tipo":"footway"},"geometry":{"type":"LineString","coordinates":[[-280.3,194.17],[-284.25,198.61],[-289.03,203.98]]}},{"type":"Feature","properties":{"id":"w1432508229","tipo":"footway"},"geometry":{"type":"LineString","coordinates":[[-327.13,149.23],[-331.17,153.16],[-336.8,158.65]]}},{"type":"Feature","properties":{"id":"w1432508248","tipo":"footway"},"geometry":{"type":"LineString","coordinates":[[-327.13,149.23],[-329.26,147.44],[-329.95,146.38],[-329.72,144.36],[-326.14,140.68],[-308.96,140.01],[-185.15,133.69],[-181.18,133.5],[-179.76,133.73],[-177.86,134.51],[-176.74,136.9],[-175.19,195.91],[-176.52,196.86],[-240.31,199.17],[-245.78,199.31],[-269.78,199.94],[-273.96,199.35],[-280.3,194.17],[-327.13,149.23]]}},{"type":"Feature","properties":{"id":"w1432508249","tipo":"footway"},"geometry":{"type":"LineString","coordinates":[[-245.78,199.31],[-245.5,204.72],[-245.3,209.21]]}},{"type":"Feature","properties":{"id":"w1432508250","tipo":"footway"},"geometry":{"type":"LineString","coordinates":[[-176.52,196.86],[-176.27,201.94],[-176.05,206.48]]}},{"type":"Feature","properties":{"id":"w1432508251","tipo":"path"},"geometry":{"type":"LineString","coordinates":[[-357.18,188.55],[-337.04,194.79],[-312.94,202.83],[-306.84,205.13],[-305.04,208.06],[-304.82,212.75],[-305.27,217.71]]}},{"type":"Feature","properties":{"id":"w1432508252","tipo":"steps"},"geometry":{"type":"LineString","coordinates":[[-306.84,205.13],[-298.52,195.46]]}},{"type":"Feature","properties":{"id":"w1432508253","tipo":"steps"},"geometry":{"type":"LineString","coordinates":[[-278.86,234.22],[-270.07,220.87]]}},{"type":"Feature","properties":{"id":"w1432508256","tipo":"footway"},"geometry":{"type":"LineString","coordinates":[[148.94,329.06],[147.06,328.42],[134.6,324.15],[112.73,318.74],[99.98,316.75],[91.24,313.6],[85.33,310.43],[79.49,308.41],[66.18,305.4],[28.08,293.28],[19.7,290.92],[10.81,288.04],[5.05,286.12],[-39.7,271.46],[-61.36,265.3],[-84.02,258.81],[-115.59,251.85],[-126.14,249.62],[-130.18,249.28],[-136.37,249.79],[-151.02,251.11],[-158.03,251.39],[-169.72,251.84],[-178.88,252.0],[-204.6,250.56],[-212.62,250.47],[-221.14,249.68],[-232.49,246.49],[-241.39,241.71],[-246.63,238.14],[-259.7,229.25],[-266.0,224.16],[-270.07,220.87],[-289.03,203.98],[-298.52,195.46],[-332.92,162.54],[-336.8,158.65],[-354.8,140.73],[-366.27,129.98],[-376.17,121.06],[-395.44,106.75],[-400.92,103.3],[-402.78,103.02],[-405.06,105.06],[-429.2,138.81]]}},{"type":"Feature","properties":{"id":"w1432508258","tipo":"footway"},"geometry":{"type":"LineString","coordinates":[[-498.64,99.11],[-491.32,102.73],[-486.87,101.94],[-456.85,116.38],[-441.22,125.23],[-440.45,129.18],[-432.56,135.54]]}},{"type":"Feature","properties":{"id":"w1432508270","tipo":"footway"},"geometry":{"type":"LineString","coordinates":[[-158.09,239.16],[-158.07,244.96],[-158.04,248.57],[-158.03,251.39]]}},{"type":"Feature","properties":{"id":"w1432508279","tipo":"footway"},"geometry":{"type":"LineString","coordinates":[[-245.3,209.21],[-251.99,209.55],[-254.99,213.27],[-254.87,214.48],[-252.23,217.63],[-232.1,232.6],[-227.27,234.65],[-216.61,237.01],[-206.17,238.77],[-201.16,239.18],[-174.85,238.63],[-173.33,237.89],[-174.16,207.8],[-174.68,206.7],[-176.05,206.48],[-245.3,209.21]]}},{"type":"Feature","properties":{"id":"w1432508283","tipo":"path"},"geometry":{"type":"LineString","coordinates":[[-477.97,-124.47],[-450.19,-137.11],[-436.73,-146.28],[-429.96,-147.93],[-420.68,-148.4],[-406.09,-145.58],[-397.99,-141.71],[-388.3,-135.71],[-380.39,-125.67],[-377.42,-112.47]]}},{"type":"Feature","properties":{"id":"w1432508284","tipo":"path"},"geometry":{"type":"LineString","coordinates":[[-484.69,-165.95],[-470.29,-154.64],[-457.48,-147.77],[-447.23,-144.87],[-436.73,-146.28]]}},{"type":"Feature","properties":{"id":"w1432508285","tipo":"path"},"geometry":{"type":"LineString","coordinates":[[-397.99,-141.71],[-393.57,-155.03],[-383.86,-184.18],[-376.87,-208.94],[-371.32,-227.84],[-365.33,-239.35],[-352.15,-246.97],[-337.4,-252.16],[-328.53,-257.85],[-321.54,-265.68],[-319.18,-272.5],[-317.46,-280.76]]}},{"type":"Feature","properties":{"id":"w1432508293","tipo":"track"},"geometry":{"type":"LineString","coordinates":[[-699.96,-381.08],[-685.97,-397.99],[-554.41,-597.43]]}},{"type":"Feature","properties":{"id":"w1432743590","tipo":"footway"},"geometry":{"type":"LineString","coordinates":[[-159.74,133.7],[-167.44,133.85],[-168.84,135.29],[-166.55,196.15],[-165.3,196.3],[-163.38,196.22],[-43.23,191.4],[-41.55,191.34],[-40.69,189.73],[-42.97,129.58],[-44.58,128.55],[-159.74,133.7]]}},{"type":"Feature","properties":{"id":"w1432743591","tipo":"footway"},"geometry":{"type":"LineString","coordinates":[[-163.38,196.22],[-163.29,201.42],[-163.32,205.52]]}},{"type":"Feature","properties":{"id":"w1432743592","tipo":"footway"},"geometry":{"type":"LineString","coordinates":[[-43.23,191.4],[-42.85,196.57],[-42.5,201.33]]}},{"type":"Feature","properties":{"id":"w1432743613","tipo":"footway"},"geometry":{"type":"LineString","coordinates":[[-163.32,205.52],[-165.76,205.88],[-166.56,206.72],[-165.93,237.72],[-164.89,238.81],[-163.66,239.4],[-158.09,239.16],[-155.41,238.15],[-39.87,233.31],[-38.76,232.48],[-40.1,202.3],[-40.73,201.4],[-42.5,201.33],[-163.32,205.52]]}},{"type":"Feature","properties":{"id":"w1432743638","tipo":"footway"},"geometry":{"type":"LineString","coordinates":[[-35.84,129.2],[-32.94,190.03],[-31.23,191.07],[-29.37,191.0],[109.89,185.6],[111.76,185.52],[112.51,183.97],[110.85,123.74],[109.9,122.84],[102.34,122.7],[-34.46,128.01],[-35.84,129.2]]}},{"type":"Feature","properties":{"id":"w1432743639","tipo":"footway"},"geometry":{"type":"LineString","coordinates":[[-29.37,191.0],[-29.2,196.03],[-29.05,200.74]]}},{"type":"Feature","properties":{"id":"w1432743640","tipo":"footway"},"geometry":{"type":"LineString","coordinates":[[109.89,185.6],[110.13,190.43],[110.37,194.95]]}},{"type":"Feature","properties":{"id":"w1432743655","tipo":"footway"},"geometry":{"type":"LineString","coordinates":[[113.99,227.5],[114.58,226.72],[114.79,225.55],[114.23,214.01],[113.4,195.91],[112.57,195.23],[110.37,194.95],[-29.05,200.74],[-30.84,200.93],[-31.68,201.73],[-30.32,233.15],[-29.25,233.72],[-26.84,233.6],[54.27,229.83],[98.85,228.09],[108.1,227.72],[113.99,227.5]]}},{"type":"Feature","properties":{"id":"w1432743656","tipo":"footway"},"geometry":{"type":"LineString","coordinates":[[113.99,227.5],[118.56,227.42],[123.41,227.34]]}},{"type":"Feature","properties":{"id":"w1432743657","tipo":"footway"},"geometry":{"type":"LineString","coordinates":[[108.1,227.72],[108.33,233.74],[108.57,239.12]]}},{"type":"Feature","properties":{"id":"w1432743658","tipo":"footway"},"geometry":{"type":"MultiLineString","coordinates":[[[108.1,227.72],[108.06,226.66],[107.6,214.07],[107.38,207.66]],[[107.38,207.66],[105.73,207.71],[105.44,197.84],[111.6,197.66],[111.89,207.52],[107.38,207.66]]]}},{"type":"Feature","properties":{"id":"w1432743662","tipo":"footway"},"geometry":{"type":"LineString","coordinates":[[82.45,216.4],[98.66,215.9],[101.04,215.31],[103.9,214.39],[107.6,214.07],[114.23,214.01]]}},{"type":"Feature","properties":{"id":"w1432743663","tipo":"footway"},"geometry":{"type":"LineString","coordinates":[[98.85,228.09],[98.83,226.95],[98.66,215.9]]}},{"type":"Feature","properties":{"id":"w1432743664","tipo":"footway"},"geometry":{"type":"LineString","coordinates":[[113.4,195.91],[117.15,195.75],[121.96,195.52]]}},{"type":"Feature","properties":{"id":"w1432743665","tipo":"footway"},"geometry":{"type":"LineString","coordinates":[[-26.84,233.6],[-26.46,239.29],[-26.1,244.87]]}},{"type":"Feature","properties":{"id":"w1433470706","tipo":"footway"},"geometry":{"type":"LineString","coordinates":[[127.96,122.21],[119.44,122.44],[117.97,123.4],[120.63,183.73],[121.46,184.79],[124.01,184.68],[249.42,179.36],[250.21,178.4],[250.1,175.77],[247.83,118.88],[246.87,117.55],[127.96,122.21]]}},{"type":"Feature","properties":{"id":"w1433470707","tipo":"footway"},"geometry":{"type":"LineString","coordinates":[[124.01,184.68],[124.23,189.86],[124.45,194.93]]}},{"type":"Feature","properties":{"id":"w1433470708","tipo":"footway"},"geometry":{"type":"LineString","coordinates":[[246.71,201.44],[248.21,197.5],[249.96,192.75]]}},{"type":"Feature","properties":{"id":"w1433470709","tipo":"footway"},"geometry":{"type":"LineString","coordinates":[[249.42,179.36],[249.76,184.97],[250.01,188.89]]}},{"type":"Feature","properties":{"id":"w1433470710","tipo":"footway"},"geometry":{"type":"LineString","coordinates":[[232.31,188.96],[250.01,188.89],[252.22,188.83],[253.39,189.22],[254.21,190.4],[254.33,191.66],[253.28,192.73],[249.96,192.75],[232.22,190.13],[231.89,189.79],[231.93,189.14],[232.31,188.96]]}},{"type":"Feature","properties":{"id":"w1433470711","tipo":"footway"},"geometry":{"type":"LineString","coordinates":[[250.1,175.77],[258.03,175.48],[264.06,175.25]]}},{"type":"Feature","properties":{"id":"w1433470729","tipo":"footway"},"geometry":{"type":"LineString","coordinates":[[389.68,175.33],[372.83,175.91],[275.06,179.28],[265.85,179.6],[264.36,178.83],[264.06,175.25],[261.54,117.7],[262.74,116.33],[371.06,112.59],[387.27,112.03]]}},{"type":"Feature","properties":{"id":"w1433470730","tipo":"footway"},"geometry":{"type":"LineString","coordinates":[[371.06,112.59],[372.83,175.91]]}},{"type":"Feature","properties":{"id":"w1433470731","tipo":"footway"},"geometry":{"type":"LineString","coordinates":[[368.71,38.36],[371.12,100.29]]}},{"type":"Feature","properties":{"id":"w1433470732","tipo":"footway"},"geometry":{"type":"LineString","coordinates":[[275.06,179.28],[275.14,184.07],[275.21,187.72]]}},{"type":"Feature","properties":{"id":"w1433470782","tipo":"track"},"geometry":{"type":"LineString","coordinates":[[456.79,264.19],[463.37,263.81],[470.65,260.03],[484.44,243.12],[491.45,235.07],[500.09,227.39],[509.55,219.7],[519.36,208.35],[526.66,193.79],[533.38,170.08],[546.07,112.52],[549.34,100.96]]}},{"type":"Feature","properties":{"id":"w1433470793","tipo":"track"},"geometry":{"type":"LineString","coordinates":[[719.55,-75.7],[750.0,-59.12]]}},{"type":"Feature","properties":{"id":"w1433470820","tipo":"track"},"geometry":{"type":"LineString","coordinates":[[750.0,370.22],[741.49,375.79],[734.08,378.57],[726.25,378.0],[720.75,378.09],[716.51,379.77],[710.76,422.52]]}},{"type":"Feature","properties":{"id":"w1433470823","tipo":"footway"},"geometry":{"type":"LineString","coordinates":[[275.21,187.72],[273.25,187.76],[271.51,188.73],[269.09,196.55],[269.93,198.82],[327.72,215.53],[360.61,225.02],[374.02,229.35],[390.81,234.96],[393.36,234.92],[394.55,233.83],[392.91,184.89],[391.95,184.1],[390.1,184.17],[275.21,187.72]]}},{"type":"Feature","properties":{"id":"w1433470824","tipo":"footway"},"geometry":{"type":"LineString","coordinates":[[249.96,192.75],[250.01,188.89]]}},{"type":"Feature","properties":{"id":"w1433570240","tipo":"footway"},"geometry":{"type":"LineString","coordinates":[[257.42,251.64],[259.32,245.73],[260.86,240.45]]}},{"type":"Feature","properties":{"id":"w1433570241","tipo":"footway"},"geometry":{"type":"LineString","coordinates":[[121.96,195.52],[124.45,194.93],[181.44,192.34],[192.11,192.31],[224.81,195.6],[238.16,198.76],[246.71,201.44],[257.3,205.06],[258.26,206.89],[249.63,235.7],[247.63,236.2],[227.57,230.23],[218.4,228.08],[193.77,225.57],[176.58,224.79],[156.02,225.45],[123.41,227.34],[121.85,225.89],[120.89,197.39],[121.96,195.52]]}},{"type":"Feature","properties":{"id":"w1433570242","tipo":"footway"},"geometry":{"type":"LineString","coordinates":[[249.63,235.7],[253.03,236.69],[256.54,237.69]]}},{"type":"Feature","properties":{"id":"w1433570243","tipo":"footway"},"geometry":{"type":"LineString","coordinates":[[258.26,206.89],[261.18,207.79],[265.65,209.17]]}},{"type":"Feature","properties":{"id":"w1433570244","tipo":"footway"},"geometry":{"type":"LineString","coordinates":[[260.86,240.45],[257.87,239.63],[256.54,237.69],[264.04,214.7],[265.65,209.17],[267.83,208.48],[355.54,234.46],[377.23,242.67],[441.43,272.02],[443.75,274.39],[443.8,276.81],[430.25,303.2],[428.1,303.23],[425.2,301.87],[392.93,286.67],[371.89,276.71],[352.49,268.46],[333.53,262.47],[287.52,248.92],[260.86,240.45]]}},{"type":"Feature","properties":{"id":"w1433570245","tipo":"footway"},"geometry":{"type":"LineString","coordinates":[[420.22,313.21],[422.76,307.43],[425.2,301.87]]}},{"type":"Feature","properties":{"id":"w1433570249","tipo":"footway"},"geometry":{"type":"LineString","coordinates":[[-35.43,261.67],[-32.93,261.45],[-31.03,261.31]]}},{"type":"Feature","properties":{"id":"w1433570250","tipo":"footway"},"geometry":{"type":"LineString","coordinates":[[-37.92,263.05],[-38.86,267.33],[-39.7,271.46]]}},{"type":"Feature","properties":{"id":"w1433570251","tipo":"footway"},"geometry":{"type":"LineString","coordinates":[[-85.86,253.06],[-86.61,250.37],[-86.15,247.86],[-83.85,247.01],[-36.43,245.4],[-35.51,246.38],[-35.43,261.67],[-35.84,262.81],[-37.92,263.05],[-44.29,262.16],[-85.03,254.45],[-85.86,253.06]]}},{"type":"Feature","properties":{"id":"w1433570273","tipo":"footway"},"geometry":{"type":"LineString","coordinates":[[-31.03,261.31],[-31.75,248.48],[-30.4,245.58],[-28.48,245.02],[-26.1,244.87],[92.28,239.8],[108.57,239.12],[112.04,239.11],[113.37,239.69],[114.09,240.99],[110.46,255.08],[109.74,257.89],[108.62,258.52],[106.0,258.63],[46.35,261.0],[-6.03,262.87],[-29.39,263.69],[-30.71,263.37],[-31.03,261.31]]}},{"type":"Feature","properties":{"id":"w1433570274","tipo":"footway"},"geometry":{"type":"LineString","coordinates":[[-6.1,267.41],[-6.04,265.62],[-6.03,262.87]]}},{"type":"Feature","properties":{"id":"w1433570275","tipo":"footway"},"geometry":{"type":"LineString","coordinates":[[110.46,255.08],[112.83,255.58],[114.14,255.84]]}},{"type":"Feature","properties":{"id":"w1433570276","tipo":"footway"},"geometry":{"type":"LineString","coordinates":[[104.8,262.61],[105.27,261.08],[106.0,258.63]]}},{"type":"Feature","properties":{"id":"w1433831378","tipo":"footway"},"geometry":{"type":"LineString","coordinates":[[114.14,255.84],[118.11,239.61],[119.03,238.78],[151.02,237.65],[166.5,238.08],[191.96,239.51],[205.46,240.56],[223.12,245.04],[242.91,250.66],[243.65,252.63],[233.46,283.79],[232.52,286.69],[231.01,287.89],[178.78,270.57],[169.49,268.09],[152.75,265.08],[113.69,258.13],[113.7,257.4],[114.14,255.84]]}},{"type":"Feature","properties":{"id":"w1433831379","tipo":"footway"},"geometry":{"type":"LineString","coordinates":[[229.26,292.52],[230.19,290.06],[231.01,287.89]]}},{"type":"Feature","properties":{"id":"w1433831380","tipo":"footway"},"geometry":{"type":"LineString","coordinates":[[233.46,283.79],[236.09,284.75],[238.57,285.65]]}},{"type":"Feature","properties":{"id":"w1433831381","tipo":"footway"},"geometry":{"type":"LineString","coordinates":[[238.57,285.65],[250.79,251.07],[252.38,250.51],[257.42,251.64],[312.48,268.41],[343.5,278.36],[365.81,287.44],[395.83,301.64],[420.22,313.21],[434.36,320.35],[435.69,322.32],[442.15,370.44],[442.87,378.37],[441.57,384.35],[439.3,389.17],[437.43,389.21],[403.43,374.97],[398.71,372.95],[392.58,371.53],[386.94,370.7],[383.52,369.59],[352.75,345.94],[339.26,331.69],[331.24,322.26],[327.56,319.51],[321.29,316.23],[317.39,314.67],[283.57,304.51],[273.07,300.6],[266.13,298.86],[242.71,293.76],[237.29,291.88],[236.68,290.48],[238.57,285.65]]}},{"type":"Feature","properties":{"id":"w1433999028","tipo":"footway"},"geometry":{"type":"LineString","coordinates":[[7.7,298.01],[5.62,299.69],[1.54,309.77],[-0.62,311.6],[-2.74,311.28],[-23.17,303.8]]}},{"type":"Feature","properties":{"id":"w1433999032","tipo":"steps"},"geometry":{"type":"LineString","coordinates":[[-0.62,311.6],[1.75,312.46],[6.62,314.23]]}},{"type":"Feature","properties":{"id":"w1433999038","nombre":"Calle Fragua","tipo":"steps"},"geometry":{"type":"LineString","coordinates":[[139.33,348.61],[131.96,372.03],[127.68,370.87],[126.33,375.53]]}},{"type":"Feature","properties":{"id":"w1433999092","tipo":"footway"},"geometry":{"type":"LineString","coordinates":[[-6.1,267.41],[-9.1,268.03],[-9.88,274.84],[18.6,280.88],[29.95,284.33],[53.41,291.39],[72.08,297.84],[85.29,302.45],[95.66,306.63],[98.06,304.84],[100.26,291.54],[102.71,281.14],[105.25,270.92],[107.26,263.56],[106.96,262.88],[104.8,262.61],[95.38,262.32],[59.36,264.97],[-6.1,267.41]]}},{"type":"Feature","properties":{"id":"w1433999093","tipo":"footway"},"geometry":{"type":"LineString","coordinates":[[29.95,284.33],[42.18,282.99],[53.41,291.39]]}},{"type":"Feature","properties":{"id":"w1433999094","tipo":"footway"},"geometry":{"type":"LineString","coordinates":[[107.26,263.56],[110.67,264.24],[112.89,264.67]]}},{"type":"Feature","properties":{"id":"w1433999106","tipo":"path"},"geometry":{"type":"LineString","coordinates":[[267.95,428.2],[270.23,426.68],[274.59,425.18],[281.86,426.38],[290.16,428.27]]}},{"type":"Feature","properties":{"id":"w1433999107","tipo":"steps"},"geometry":{"type":"LineString","coordinates":[[290.16,428.27],[303.49,432.2],[315.99,414.43]]}},{"type":"Feature","properties":{"id":"w1433999108","tipo":"footway"},"geometry":{"type":"LineString","coordinates":[[239.57,370.44],[266.7,386.67],[274.42,391.07],[292.45,400.17],[305.38,407.15],[311.37,410.98],[315.99,414.43],[336.37,425.36],[359.38,437.71],[364.29,439.7],[373.16,442.25],[409.78,451.95],[417.68,453.8],[436.04,454.19],[439.82,453.89],[442.79,451.45],[444.6,448.49],[444.78,445.18],[444.33,401.65],[444.76,399.86],[445.92,399.54],[468.79,407.54]]}},{"type":"Feature","properties":{"id":"w1433999120","nombre":"Plaza Príncipe de Viana","tipo":"pedestrian"},"geometry":{"type":"LineString","coordinates":[[412.41,450.57],[417.68,453.8],[420.65,455.62],[426.59,459.22],[432.12,461.36],[439.72,462.77],[449.68,461.44],[460.93,457.56]]}},{"type":"Feature","properties":{"id":"w1433999123","tipo":"footway"},"geometry":{"type":"LineString","coordinates":[[412.41,450.57],[412.56,447.78]]}},{"type":"Feature","properties":{"id":"w1433999156","nombre":"Plaza Príncipe de Viana","tipo":"pedestrian"},"geometry":{"type":"LineString","coordinates":[[424.33,387.77],[424.25,390.85],[423.62,416.73],[423.3,430.03],[420.84,430.28],[412.62,430.42],[407.94,430.5],[403.85,432.37],[399.66,435.9]]}},{"type":"Feature","properties":{"id":"w1433999157","nombre":"Plaza Príncipe de Viana","tipo":"pedestrian"},"geometry":{"type":"LineString","coordinates":[[423.3,430.03],[437.23,429.47]]}},{"type":"Feature","properties":{"id":"w1433999158","tipo":"steps"},"geometry":{"type":"LineString","coordinates":[[437.23,429.47],[441.11,429.4],[442.98,429.36]]}},{"type":"Feature","properties":{"id":"w1433999159","tipo":"footway"},"geometry":{"type":"LineString","coordinates":[[252.02,355.9],[254.78,357.24],[256.37,357.62],[259.34,356.64],[261.04,356.84],[299.92,367.79],[310.24,373.01],[310.75,374.68],[312.2,376.94],[336.06,394.3],[336.28,395.37],[325.37,414.48],[324.7,414.55],[266.17,382.5],[240.84,368.67]]}},{"type":"Feature","properties":{"id":"w1433999160","tipo":"footway"},"geometry":{"type":"LineString","coordinates":[[336.28,395.37],[337.56,396.23],[340.15,397.97]]}},{"type":"Feature","properties":{"id":"w1433999161","tipo":"footway"},"geometry":{"type":"LineString","coordinates":[[325.37,414.48],[327.59,415.7],[329.7,416.87]]}},{"type":"Feature","properties":{"id":"w1433999162","tipo":"footway"},"geometry":{"type":"LineString","coordinates":[[329.7,416.87],[362.54,435.38],[370.04,438.2],[394.55,444.89],[395.86,444.16],[397.5,438.54],[396.66,437.24],[343.12,399.22],[340.15,397.97],[338.71,398.97],[329.7,416.87]]}},{"type":"Feature","properties":{"id":"w1433999163","tipo":"footway"},"geometry":{"type":"LineString","coordinates":[[397.5,438.54],[399.66,435.9]]}},{"type":"Feature","properties":{"id":"w1433999164","tipo":"footway"},"geometry":{"type":"LineString","coordinates":[[468.79,407.54],[471.52,408.47]]}},{"type":"Feature","properties":{"id":"w1433999165","tipo":"footway"},"geometry":{"type":"LineString","coordinates":[[445.92,399.54],[443.36,398.34],[440.56,397.04]]}},{"type":"Feature","properties":{"id":"w1433999166","tipo":"footway"},"geometry":{"type":"LineString","coordinates":[[440.56,397.04],[424.25,390.85],[376.87,370.86],[362.61,366.44],[357.33,366.41],[328.39,366.91],[321.82,379.87],[387.04,423.6],[392.86,427.35],[403.07,428.81],[405.07,429.0],[407.94,430.5]]}},{"type":"Feature","properties":{"id":"w1433999167","tipo":"footway"},"geometry":{"type":"LineString","coordinates":[[252.75,353.93],[253.29,353.9],[254.05,353.33],[254.76,353.07],[259.79,354.76],[261.99,355.33],[283.44,359.23],[298.82,360.75],[322.96,362.88],[337.11,363.93],[351.3,364.27],[351.93,363.56],[353.84,354.94],[353.47,354.3],[337.71,340.97],[315.98,321.66],[312.14,318.95],[262.98,302.31],[253.72,298.85],[237.26,295.67],[233.38,294.61],[229.26,292.52],[226.91,290.76],[198.82,280.62],[173.85,273.1],[127.39,264.82],[114.12,262.27],[113.43,262.52],[112.89,264.67],[101.07,308.09],[101.46,308.94],[111.66,312.84],[125.8,316.06],[153.05,322.1]]}},{"type":"Feature","properties":{"id":"w1433999172","nombre":"Escorredero Principal","tipo":"track","superficie":"ground"},"geometry":{"type":"LineString","coordinates":[[83.21,379.23],[49.08,368.94],[12.84,356.53],[-15.2,346.28],[-35.51,337.42],[-52.41,330.66],[-73.14,324.12],[-98.21,316.72],[-129.45,308.22],[-175.22,296.12],[-205.53,288.06],[-259.72,269.51],[-273.53,263.46],[-292.49,253.04],[-316.89,239.05],[-332.88,231.81],[-345.74,226.97],[-358.71,223.97],[-382.21,218.4],[-399.71,212.1],[-410.1,207.37],[-418.35,202.3],[-425.4,195.36],[-434.38,183.1],[-445.9,166.58],[-451.2,157.2]]}},{"type":"Feature","properties":{"id":"w1433999175","tipo":"footway"},"geometry":{"type":"LineString","coordinates":[[7.11,318.24],[5.0,321.24],[4.4,322.08]]}},{"type":"Feature","properties":{"id":"w1433999176","tipo":"steps"},"geometry":{"type":"LineString","coordinates":[[4.4,322.08],[-0.44,334.19],[6.24,336.84],[5.57,338.5]]}},{"type":"Feature","properties":{"id":"w24303392","tipo":"track","superficie":"ground"},"geometry":{"type":"LineString","coordinates":[[578.45,-610.52],[580.55,-615.46]]}},{"type":"Feature","properties":{"id":"w317362511","nombre":"Calle del Canal","tipo":"pedestrian"},"geometry":{"type":"LineString","coordinates":[[87.63,366.9],[118.22,378.64],[267.95,428.2],[320.75,445.67],[385.22,472.47],[408.41,479.79],[438.0,483.44],[448.08,482.23],[451.7,479.57],[455.06,474.47],[460.93,457.56]]}},{"type":"Feature","properties":{"id":"w317362519","nombre":"Gran Travesía Cañada Roncaleses","tipo":"track","superficie":"ground"},"geometry":{"type":"LineString","coordinates":[[392.18,-8.36],[391.46,-44.07],[391.15,-59.7],[388.53,-68.28],[389.16,-75.54],[395.05,-89.51],[418.09,-133.94],[461.88,-227.27],[468.58,-242.08],[483.4,-284.38],[493.31,-353.57],[530.65,-505.56],[541.7,-534.96],[576.04,-604.89],[578.45,-610.52]]}},{"type":"Feature","properties":{"id":"w317362523","tipo":"track","superficie":"ground"},"geometry":{"type":"LineString","coordinates":[[750.0,-521.54],[578.45,-610.52],[465.27,-675.55],[452.25,-687.56],[443.75,-700.0]]}},{"type":"Feature","properties":{"id":"w317362524","tipo":"track"},"geometry":{"type":"LineString","coordinates":[[-646.9,-700.0],[-598.47,-646.66],[-554.41,-597.43],[-455.74,-487.15],[-425.19,-455.82],[-308.5,-328.22],[-266.45,-300.91],[-171.27,-239.11],[-161.69,-232.89],[-152.23,-227.19],[-137.78,-211.36],[-112.55,-176.52],[-96.93,-157.13]]}},{"type":"Feature","properties":{"id":"w317362525","tipo":"track"},"geometry":{"type":"LineString","coordinates":[[-171.27,-239.11],[-167.91,-227.4],[-169.1,-216.2],[-216.41,-120.82]]}},{"type":"Feature","properties":{"id":"w317362527","tipo":"track"},"geometry":{"type":"LineString","coordinates":[[168.03,-289.41],[231.48,-285.05],[256.99,-290.59],[292.04,-363.15],[442.96,-675.63],[452.25,-687.56]]}},{"type":"Feature","properties":{"id":"w319528908","tipo":"track","superficie":"ground","puente":"yes","capa":"1"},"geometry":{"type":"LineString","coordinates":[[580.55,-615.46],[585.26,-625.17]]}},{"type":"Feature","properties":{"id":"w319528911","nombre":"Camino del Monte","tipo":"track","superficie":"ground"},"geometry":{"type":"LineString","coordinates":[[585.26,-625.17],[588.29,-633.82],[592.82,-646.76],[605.7,-675.21],[619.98,-700.0]]}},{"type":"Feature","properties":{"id":"w319528915","tipo":"track","superficie":"ground"},"geometry":{"type":"LineString","coordinates":[[588.29,-633.82],[626.0,-616.16],[710.97,-567.26]]}},{"type":"Feature","properties":{"id":"w320604070","nombre":"Escorredero Principal","tipo":"track","superficie":"ground"},"geometry":{"type":"LineString","coordinates":[[750.0,552.43],[709.54,542.65],[674.76,534.5],[634.91,527.07],[618.86,525.19],[593.14,524.26],[579.43,522.96],[559.77,517.12],[551.42,514.71],[535.83,512.52],[518.35,507.6],[507.58,503.74],[502.86,502.05],[492.05,500.24],[481.9,500.26],[452.97,500.91],[434.93,499.38],[407.92,495.25],[382.57,489.25],[374.05,486.03],[347.05,473.61],[326.41,463.84],[308.12,456.79],[282.12,448.5],[240.83,437.4],[215.74,428.94],[157.22,409.71],[133.19,399.54],[112.88,391.15],[83.21,379.23]]}},{"type":"Feature","properties":{"id":"w320604072","tipo":"track","superficie":"ground"},"geometry":{"type":"LineString","coordinates":[[-10.88,700.0],[-9.06,693.54],[13.65,617.54],[15.74,610.25],[47.63,499.32],[77.98,402.79],[78.96,397.1],[77.99,393.9],[74.85,390.42],[68.97,388.53],[57.83,385.66],[56.41,383.39],[55.88,379.71]]}},{"type":"Feature","properties":{"id":"w320604082","nombre":"Escorredero Principal","tipo":"track","superficie":"ground"},"geometry":{"type":"LineString","coordinates":[[83.21,379.23],[70.04,379.62],[63.4,378.51],[55.88,379.71],[42.62,378.87],[27.03,375.61],[14.48,371.38],[-22.24,357.74],[-46.55,349.12],[-79.51,339.26],[-124.5,327.46],[-210.16,305.62],[-228.74,299.34],[-282.25,275.73],[-317.93,259.77],[-339.14,252.16],[-376.26,242.22],[-386.63,238.87],[-403.43,228.57],[-442.09,200.4],[-452.25,191.54],[-458.75,184.05]]}},{"type":"Feature","properties":{"id":"w320604097","tipo":"track","superficie":"ground"},"geometry":{"type":"LineString","coordinates":[[83.21,379.23],[83.83,384.9],[81.63,390.93],[77.99,393.9]]}},{"type":"Feature","properties":{"id":"w543789456","nombre":"Escorredero Principal","tipo":"track"},"geometry":{"type":"LineString","coordinates":[[-646.12,153.29],[-609.61,154.23],[-525.88,162.95],[-451.2,157.2],[-470.07,145.58],[-517.45,128.41],[-570.75,86.32],[-589.46,70.23],[-622.28,32.87],[-699.65,-40.08],[-718.2,-46.41],[-743.28,-44.8],[-750.0,-45.78]]}},{"type":"Feature","properties":{"id":"w543789459","tipo":"track"},"geometry":{"type":"LineString","coordinates":[[-735.72,282.26],[-646.12,153.29],[-589.46,70.23]]}},{"type":"Feature","properties":{"id":"w543789460","nombre":"Escorredero Principal","tipo":"track"},"geometry":{"type":"LineString","coordinates":[[-750.0,272.52],[-735.72,282.26],[-535.61,419.57],[-525.52,419.6]]}},{"type":"Feature","properties":{"id":"w543789465","nombre":"Escorredero Principal","tipo":"track"},"geometry":{"type":"MultiLineString","coordinates":[[[560.4,510.79],[559.77,517.12],[555.3,562.7],[551.37,592.11],[548.86,606.6],[544.03,634.41],[542.69,642.15],[529.48,696.98],[528.43,700.0]],[[319.81,700.0],[273.46,686.1],[15.74,610.25],[-142.31,559.18],[-488.64,443.7],[-530.49,436.99]]]}},{"type":"Feature","properties":{"id":"w543789467","tipo":"track"},"geometry":{"type":"LineString","coordinates":[[544.03,634.41],[483.17,620.0],[113.47,513.85],[47.63,499.32],[-108.63,442.54],[-496.59,318.39]]}},{"type":"Feature","properties":{"id":"w543789468","tipo":"track"},"geometry":{"type":"LineString","coordinates":[[-182.84,700.0],[-177.89,683.23],[-142.31,559.18],[-108.63,442.54],[-79.51,339.26]]}},{"type":"Feature","properties":{"id":"w543789475","tipo":"track"},"geometry":{"type":"LineString","coordinates":[[548.86,606.6],[750.0,667.73]]}},{"type":"Feature","properties":{"id":"w543789476","tipo":"track"},"geometry":{"type":"LineString","coordinates":[[740.64,700.0],[750.0,668.68]]}},{"type":"Feature","properties":{"id":"w578040481","tipo":"track"},"geometry":{"type":"LineString","coordinates":[[-16.17,-700.0],[-31.2,-675.59],[-55.28,-637.63],[-73.11,-609.37],[-89.35,-583.41],[-106.18,-554.69],[-123.47,-528.15],[-140.07,-500.6],[-157.27,-474.1],[-174.0,-446.88],[-191.71,-419.13],[-209.31,-392.63],[-226.13,-366.46],[-256.66,-318.44],[-266.45,-300.91]]}},{"type":"Feature","properties":{"id":"w578040483","tipo":"track"},"geometry":{"type":"LineString","coordinates":[[-302.65,-700.0],[-450.03,-493.86],[-455.74,-487.15]]}},{"type":"Feature","properties":{"id":"w578040497","tipo":"track"},"geometry":{"type":"LineString","coordinates":[[-566.66,-700.0],[-595.92,-654.65],[-598.47,-646.66]]}},{"type":"Feature","properties":{"id":"w578040499","tipo":"track"},"geometry":{"type":"LineString","coordinates":[[239.19,-700.0],[224.18,-676.38],[193.14,-627.21]]}},{"type":"Feature","properties":{"id":"w578040501","tipo":"track"},"geometry":{"type":"LineString","coordinates":[[193.14,-627.21],[170.96,-593.27],[151.71,-562.69],[110.42,-495.39],[91.34,-463.98],[70.65,-432.14],[-71.55,-206.67],[-94.99,-175.06],[-97.28,-166.29],[-96.93,-157.13]]}},{"type":"Feature","properties":{"id":"w666973941","tipo":"track"},"geometry":{"type":"LineString","coordinates":[[568.36,23.2],[582.59,-19.69],[590.67,-40.18],[609.74,-93.17],[663.55,-192.35],[681.19,-225.4],[748.12,-412.86],[750.0,-415.94]]}},{"type":"Feature","properties":{"id":"w666973945","tipo":"track"},"geometry":{"type":"LineString","coordinates":[[623.76,109.67],[708.15,155.12],[750.0,177.66]]}}]}