{"type":"FeatureCollection","sistema":"local Cabanillas Drive: [x, z] en metros, x = E − E_centro, z = −(N − N_centro)","fuente":"© colaboradores de OpenStreetMap (ODbL)","features":[{"type":"Feature","properties":{"id":"n13155095845","tipo":"drinking_water"},"geometry":{"type":"Point","coordinates":[379.83,21.19]}},{"type":"Feature","properties":{"id":"n13169208628","tipo":"fountain"},"geometry":{"type":"Point","coordinates":[105.86,220.8]}},{"type":"Feature","properties":{"id":"n13169208754","nombre":"Caixabank","tipo":"bank"},"geometry":{"type":"Point","coordinates":[108.62,183.24]}},{"type":"Feature","properties":{"id":"n839484227","nombre":"S.COOP. DEL CAMPO SAN ISIDRO","tipo":"fuel"},"geometry":{"type":"Point","coordinates":[-386.78,-89.86]}},{"type":"Feature","properties":{"id":"w1432250232","nombre":"Centro de Salud de Cabanillas","tipo":"clinic"},"geometry":{"type":"Point","coordinates":[27.43,80.64]}},{"type":"Feature","properties":{"id":"w1432743643","nombre":"Club Juvenil","tipo":"community_centre"},"geometry":{"type":"Point","coordinates":[81.87,222.31]}},{"type":"Feature","properties":{"id":"w1432743644","nombre":"Cabanillas","tipo":"bus_station"},"geometry":{"type":"Point","coordinates":[93.54,224.69]}},{"type":"Feature","properties":{"id":"w1433999026","nombre":"Biblioteca Pública","tipo":"library"},"geometry":{"type":"Point","coordinates":[-10.22,286.76]}},{"type":"Feature","properties":{"id":"w1433999030","nombre":"Casa Cultural Cabanillas","tipo":"community_centre"},"geometry":{"type":"Point","coordinates":[-13.86,297.72]}},{"type":"Feature","properties":{"id":"w315291251","nombre":"Colegio Público San Juan de Jerusalén","tipo":"school"},"geometry":{"type":"Point","coordinates":[153.19,73.67]}},{"type":"Feature","properties":{"id":"w316933603","nombre":"Ayuntamiento de Cabanillas","tipo":"townhall"},"geometry":{"type":"Point","coordinates":[211.4,346.48]}},{"type":"Feature","properties":{"id":"w317362513","nombre":"San Juan de Jerusalén","tipo":"place_of_worship"},"geometry":{"type":"Point","coordinates":[426.75,438.72]}},{"type":"Feature","properties":{"id":"w685628469","nombre":"Parroquia de la Asunción","tipo":"place_of_worship"},"geometry":{"type":"Point","coordinates":[87.07,207.21]}}]}