{"type":"FeatureCollection","sistema":"local Cabanillas Drive: [x, z] en metros, x = E − E_centro, z = −(N − N_centro)","fuente":"© colaboradores de OpenStreetMap (ODbL)","features":[{"type":"Feature","properties":{"id":"r19621551","nombre":"Parque Paseo de Pamplona","tipo":"park"},"geometry":{"type":"MultiPolygon","coordinates":[[[[380.69,201.41],[378.07,195.84],[385.36,195.46],[384.95,185.68],[395.16,185.23],[395.85,200.73],[380.69,201.41]]],[[[372.11,175.37],[371.15,131.99],[370.37,114.01],[391.73,113.41],[394.22,174.62],[372.11,175.37]]],[[[370.61,100.78],[370.39,97.32],[369.82,79.11],[369.66,73.75],[369.54,69.74],[369.01,52.83],[368.59,39.13],[389.84,38.47],[391.88,100.0],[370.61,100.78]]],[[[389.77,25.52],[388.21,27.5],[368.28,28.39],[367.27,9.13],[366.96,-1.37],[366.87,-2.62],[387.7,-3.87],[388.67,-2.44],[389.77,25.52]]]]}},{"type":"Feature","properties":{"id":"w1425767486","nombre":"Área de Actividades Económicas de Cabanillas","tipo":"industrial"},"geometry":{"type":"Polygon","coordinates":[[[-600.13,-656.05],[-589.96,-644.54],[-485.75,-529.14],[-505.7,-503.5],[-561.65,-533.69],[-670.61,-381.73],[-613.0,-337.4],[-680.0,-240.09],[-686.5,-230.64],[-750.0,-276.42],[-750.0,-700.0],[-640.28,-700.0],[-600.13,-656.05]]]}},{"type":"Feature","properties":{"id":"w1426810990","nombre":"Polígono Industrial Cabanillas","tipo":"industrial"},"geometry":{"type":"Polygon","coordinates":[[[-240.62,-75.2],[-239.04,-26.56],[-237.92,8.29],[-237.99,14.38],[-464.18,23.49],[-466.86,23.6],[-462.12,14.43],[-451.19,7.58],[-442.64,3.28],[-433.32,-1.41],[-425.65,-11.68],[-420.79,-33.78],[-418.66,-79.01],[-412.61,-99.09],[-396.57,-113.28],[-372.86,-120.35],[-242.27,-124.07],[-240.62,-75.2]]]}},{"type":"Feature","properties":{"id":"w1426810995","tipo":"forest"},"geometry":{"type":"Polygon","coordinates":[[[-476.81,-61.16],[-470.94,-57.5],[-460.24,-44.07],[-451.86,-30.02],[-447.62,-19.95],[-443.32,-6.69],[-442.64,3.28],[-451.19,7.58],[-462.12,14.43],[-466.86,23.6],[-501.52,23.85],[-529.85,3.03],[-734.9,-155.31],[-728.85,-162.93],[-706.36,-191.34],[-635.62,-137.52],[-603.77,-184.81],[-576.5,-225.3],[-565.97,-218.09],[-518.67,-185.77],[-495.71,-166.67],[-485.01,-146.98],[-483.58,-130.95],[-488.33,-116.34],[-500.96,-92.44],[-511.79,-75.81],[-506.52,-67.33],[-513.17,-56.37],[-517.99,-42.18],[-522.29,-27.73],[-522.44,-21.16],[-513.86,-22.32],[-502.13,-17.98],[-487.07,-10.17],[-471.18,1.16],[-457.4,7.48],[-451.7,0.83],[-452.3,-4.97],[-456.06,-17.51],[-463.41,-32.77],[-477.63,-50.43],[-488.87,-58.99],[-476.81,-61.16]]]}},{"type":"Feature","properties":{"id":"w1426810996","tipo":"farmyard"},"geometry":{"type":"Polygon","coordinates":[[[-686.5,-230.64],[-680.0,-240.09],[-663.78,-228.33],[-603.77,-184.81],[-635.62,-137.52],[-706.36,-191.34],[-728.85,-162.93],[-750.0,-178.41],[-750.0,-276.42],[-686.5,-230.64]]]}},{"type":"Feature","properties":{"id":"w1426811005","tipo":"park"},"geometry":{"type":"Polygon","coordinates":[[[159.32,-198.07],[163.26,-203.76],[186.08,-201.65],[222.58,-199.48],[226.28,-175.42],[179.43,-179.03],[171.04,-176.65],[170.49,-170.14],[168.64,-161.12],[162.7,-157.2],[149.53,-155.8],[137.76,-160.59],[129.15,-146.47],[120.02,-152.96],[118.61,-157.6],[117.66,-164.07],[116.54,-170.71],[114.07,-178.65],[112.13,-184.93],[112.32,-192.92],[117.58,-197.83],[126.36,-201.65],[133.04,-201.6],[148.88,-203.21],[159.32,-198.07]]]}},{"type":"Feature","properties":{"id":"w1426811007","tipo":"construction"},"geometry":{"type":"Polygon","coordinates":[[[-63.29,-132.53],[-110.89,-132.01],[-96.18,-150.25],[-63.29,-132.53]]]}},{"type":"Feature","properties":{"id":"w1426811008","tipo":"construction"},"geometry":{"type":"Polygon","coordinates":[[[-58.53,-136.26],[-87.06,-154.07],[-87.46,-157.88],[-78.09,-166.53],[-59.54,-175.67],[-36.07,-179.57],[33.7,-181.61],[43.15,-185.42],[61.92,-201.05],[100.35,-238.49],[113.64,-252.36],[122.75,-256.17],[135.77,-256.56],[158.38,-252.29],[158.94,-249.31],[156.13,-218.98],[154.59,-210.8],[148.88,-203.21],[133.04,-201.6],[126.36,-201.65],[117.58,-197.83],[112.32,-192.92],[112.13,-184.93],[114.07,-178.65],[-47.99,-171.39],[-46.58,-140.4],[-46.54,-137.31],[-58.53,-136.26]]]}},{"type":"Feature","properties":{"id":"w1426811009","tipo":"forest"},"geometry":{"type":"Polygon","coordinates":[[[236.91,-240.68],[237.3,-233.12],[239.82,-219.04],[242.84,-205.23],[245.06,-193.91],[251.58,-182.93],[256.57,-172.18],[253.35,-168.08],[239.1,-173.13],[226.28,-175.42],[222.58,-199.48],[186.08,-201.65],[163.26,-203.76],[159.32,-198.07],[148.88,-203.21],[154.59,-210.8],[164.54,-208.42],[223.71,-206.48],[223.96,-244.93],[236.91,-240.68]]]}},{"type":"Feature","properties":{"id":"w1426811010","tipo":"construction"},"geometry":{"type":"Polygon","coordinates":[[[237.23,-124.74],[237.73,-105.53],[113.33,-100.45],[112.79,-121.89],[237.23,-124.74]]]}},{"type":"Feature","properties":{"id":"w1426811011","tipo":"construction"},"geometry":{"type":"Polygon","coordinates":[[[285.24,-119.1],[309.67,-111.2],[342.51,-85.3],[370.18,-65.85],[386.04,-56.79],[399.06,-50.21],[422.01,-40.52],[458.42,-17.69],[442.52,-14.95],[397.8,-13.74],[396.73,-45.53],[253.22,-41.61],[251.46,-105.13],[250.83,-121.28],[285.24,-119.1]]]}},{"type":"Feature","properties":{"id":"w1426811012","tipo":"construction"},"geometry":{"type":"Polygon","coordinates":[[[528.05,-9.76],[546.09,-1.24],[561.24,9.17],[566.67,19.3],[541.27,72.19],[537.1,69.29],[511.43,-9.9],[528.05,-9.76]]]}},{"type":"Feature","properties":{"id":"w1426811013","tipo":"construction"},"geometry":{"type":"Polygon","coordinates":[[[261.41,-161.86],[270.95,-148.12],[273.73,-138.62],[275.61,-131.12],[250.38,-132.64],[118.85,-134.62],[129.15,-146.47],[137.76,-160.59],[149.53,-155.8],[162.7,-157.2],[168.64,-161.12],[170.49,-170.14],[171.04,-176.65],[179.43,-179.03],[226.28,-175.42],[239.1,-173.13],[253.35,-168.08],[261.41,-161.86]]]}},{"type":"Feature","properties":{"id":"w1426811016","tipo":"construction"},"geometry":{"type":"Polygon","coordinates":[[[488.27,139.32],[487.36,109.78],[519.21,108.58],[512.87,137.01],[505.66,153.16],[489.27,170.0],[488.27,139.32]]]}},{"type":"Feature","properties":{"id":"w1426811034","tipo":"farmland"},"geometry":{"type":"Polygon","coordinates":[[[452.61,-196.91],[418.09,-133.94],[407.52,-114.66],[339.48,-150.17],[338.78,-168.3],[335.34,-187.93],[325.68,-208.61],[318.15,-218.13],[312.65,-223.06],[319.25,-240.9],[325.6,-258.04],[452.61,-196.91]]]}},{"type":"Feature","properties":{"id":"w1426811035","tipo":"orchard"},"geometry":{"type":"Polygon","coordinates":[[[309.29,-215.28],[250.72,-263.31],[254.39,-275.33],[260.91,-279.31],[319.25,-240.9],[312.65,-223.06],[309.29,-215.28]]]}},{"type":"Feature","properties":{"id":"w1426811038","tipo":"forest"},"geometry":{"type":"Polygon","coordinates":[[[-210.81,-143.4],[-164.47,-223.74],[-151.16,-215.48],[-113.07,-164.4],[-108.13,-151.89],[-119.42,-131.92],[-161.65,-131.46],[-221.44,-125.98],[-210.81,-143.4]]]}},{"type":"Feature","properties":{"id":"w1426811039","tipo":"farmland"},"geometry":{"type":"Polygon","coordinates":[[[274.5,-688.89],[281.8,-683.1],[265.42,-643.87],[215.83,-503.67],[193.28,-442.98],[180.89,-387.33],[167.89,-289.09],[160.65,-290.73],[159.26,-281.44],[113.81,-310.38],[35.18,-196.29],[-40.35,-261.79],[-83.1,-201.6],[-156.23,-240.1],[-161.87,-228.91],[-224.04,-265.57],[-234.42,-248.54],[-251.62,-213.2],[-260.42,-207.73],[-272.91,-182.68],[-343.33,-213.85],[-313.41,-260.04],[-322.83,-264.31],[-338.28,-256.95],[-410.89,-311.58],[-493.4,-191.76],[-557.25,-228.8],[-565.97,-218.09],[-576.5,-225.3],[-603.77,-184.81],[-680.0,-240.09],[-613.0,-337.4],[-670.61,-381.73],[-561.65,-533.69],[-505.7,-503.5],[-485.75,-529.14],[-454.95,-495.05],[-315.64,-700.0],[-303.26,-700.0],[-445.84,-490.75],[-445.71,-483.24],[-309.02,-334.25],[-268.6,-307.94],[-23.52,-700.0],[-13.45,-700.0],[-222.5,-365.38],[-128.83,-290.87],[-11.26,-479.2],[68.11,-435.43],[234.06,-700.0],[260.5,-700.0],[274.5,-688.89]]]}},{"type":"Feature","properties":{"id":"w1426811042","tipo":"allotments"},"geometry":{"type":"Polygon","coordinates":[[[-684.38,-77.54],[-647.17,-59.5],[-603.67,-27.1],[-561.71,20.99],[-539.6,40.51],[-520.85,40.18],[-497.09,50.02],[-481.83,58.2],[-470.49,54.32],[-420.82,92.46],[-416.89,98.91],[-432.75,128.35],[-467.27,108.59],[-485.8,99.39],[-490.68,100.44],[-497.69,96.58],[-507.54,96.63],[-515.79,110.34],[-558.14,69.27],[-663.45,-34.15],[-701.78,-69.41],[-684.38,-77.54]]]}},{"type":"Feature","properties":{"id":"w1426811043","tipo":"farmland"},"geometry":{"type":"Polygon","coordinates":[[[-736.87,-83.6],[-725.48,-67.87],[-745.92,-62.2],[-750.0,-63.48],[-750.0,-98.23],[-736.87,-83.6]]]}},{"type":"Feature","properties":{"id":"w1426811045","tipo":"farmyard"},"geometry":{"type":"Polygon","coordinates":[[[476.56,405.48],[535.12,423.42],[546.78,435.32],[559.12,459.09],[567.41,488.18],[567.19,501.66],[546.97,498.81],[533.84,495.15],[525.53,491.87],[510.26,483.92],[496.71,482.55],[480.72,485.8],[467.71,488.76],[455.03,485.78],[476.56,405.48]]]}},{"type":"Feature","properties":{"id":"w1427290520","tipo":"forest"},"geometry":{"type":"MultiPolygon","coordinates":[[[[727.06,-700.0],[750.0,-700.0],[750.0,-673.11],[727.06,-700.0]]],[[[690.48,-660.18],[747.44,-623.75],[750.0,-624.69],[750.0,-548.85],[746.3,-548.09],[656.51,-594.53],[585.68,-630.71],[541.96,-657.61],[482.55,-693.99],[472.61,-700.0],[696.51,-700.0],[690.48,-660.18]]]]}},{"type":"Feature","properties":{"id":"w1427290522","tipo":"orchard"},"geometry":{"type":"Polygon","coordinates":[[[437.33,-695.52],[435.0,-687.79],[421.76,-700.0],[434.14,-700.0],[437.33,-695.52]]]}},{"type":"Feature","properties":{"id":"w1427290543","tipo":"forest"},"geometry":{"type":"Polygon","coordinates":[[[521.73,327.65],[506.21,315.57],[497.47,288.03],[490.39,260.22],[500.2,244.54],[530.31,221.67],[559.52,105.16],[553.94,94.55],[549.65,89.7],[577.38,38.37],[608.74,-30.97],[648.04,-90.04],[672.29,-128.96],[678.69,-133.09],[729.45,-108.0],[572.25,198.63],[585.16,205.28],[515.21,346.6],[521.73,327.65]]]}},{"type":"Feature","properties":{"id":"w1427290552","tipo":"farmyard"},"geometry":{"type":"Polygon","coordinates":[[[683.23,410.9],[687.21,371.3],[733.7,376.66],[750.0,343.87],[750.0,432.63],[681.93,423.79],[683.23,410.9]]]}},{"type":"Feature","properties":{"id":"w1427930172","tipo":"farmland"},"geometry":{"type":"Polygon","coordinates":[[[569.89,395.43],[589.99,402.37],[600.53,420.63],[621.2,432.41],[705.19,471.73],[712.8,460.92],[723.94,456.84],[750.0,461.2],[750.0,507.06],[738.86,502.7],[672.67,478.6],[631.85,456.49],[583.09,425.78],[566.77,411.5],[557.81,400.5],[569.89,395.43]]]}},{"type":"Feature","properties":{"id":"w1427930181","tipo":"farmland"},"geometry":{"type":"MultiPolygon","coordinates":[[[[-130.81,552.73],[62.44,614.04],[92.79,516.15],[125.21,525.25],[292.35,572.15],[284.26,600.91],[264.76,670.23],[344.17,692.4],[375.7,580.34],[296.28,558.17],[306.79,495.28],[358.06,514.85],[426.58,535.76],[470.87,531.71],[451.71,611.42],[550.75,639.17],[555.08,604.73],[563.01,540.76],[634.44,552.31],[750.0,578.47],[750.0,700.0],[-176.31,700.0],[-130.81,552.73]]],[[[-314.16,676.99],[-320.97,700.0],[-750.0,700.0],[-750.0,-24.75],[-714.35,-21.01],[-610.47,75.21],[-660.53,157.27],[-476.79,282.33],[-454.56,202.88],[-413.25,235.66],[-377.93,252.15],[-339.89,260.76],[-367.12,366.94],[-199.51,418.9],[-230.34,536.44],[-156.84,559.72],[-195.64,700.0],[-241.77,700.0],[-314.16,676.99]]]]}},{"type":"Feature","properties":{"id":"w1427930184","tipo":"allotments"},"geometry":{"type":"MultiPolygon","coordinates":[[[[-660.53,157.27],[-610.47,75.21],[-593.18,70.42],[-568.53,92.33],[-519.37,128.07],[-468.81,144.16],[-452.52,149.46],[-441.0,169.84],[-427.77,193.23],[-412.87,204.71],[-381.07,218.88],[-339.06,228.81],[-284.0,259.97],[-248.78,273.36],[-60.52,328.43],[78.4,377.28],[83.21,379.23],[158.99,409.93],[152.55,431.9],[125.21,525.25],[92.79,516.15],[62.44,614.04],[-130.81,552.73],[-176.31,700.0],[-195.64,700.0],[-156.84,559.72],[-230.34,536.44],[-199.51,418.9],[-367.12,366.94],[-339.89,260.76],[-377.93,252.15],[-413.25,235.66],[-454.56,202.88],[-476.79,282.33],[-660.53,157.27]]],[[[-314.16,676.99],[-241.77,700.0],[-320.97,700.0],[-314.16,676.99]]]]}},{"type":"Feature","properties":{"id":"w1427930185","tipo":"allotments"},"geometry":{"type":"Polygon","coordinates":[[[296.28,558.17],[375.7,580.34],[344.17,692.4],[264.76,670.23],[284.26,600.91],[292.35,572.15],[296.28,558.17]]]}},{"type":"Feature","properties":{"id":"w1427930186","tipo":"allotments"},"geometry":{"type":"Polygon","coordinates":[[[532.51,530.22],[559.64,537.43],[563.01,540.76],[555.08,604.73],[550.75,639.17],[483.17,620.0],[507.71,523.62],[514.61,525.46],[532.51,530.22]]]}},{"type":"Feature","properties":{"id":"w1427930190","tipo":"forest"},"geometry":{"type":"Polygon","coordinates":[[[562.59,529.07],[566.68,517.45],[579.33,523.12],[591.18,525.12],[608.86,522.61],[653.98,526.98],[750.0,553.13],[750.0,578.47],[634.44,552.31],[563.01,540.76],[559.64,537.43],[562.59,529.07]]]}},{"type":"Feature","properties":{"id":"w1430838645","tipo":"grass"},"geometry":{"type":"Polygon","coordinates":[[[-475.89,30.47],[-475.65,31.5],[-442.27,54.76],[-441.83,59.95],[-443.37,59.9],[-445.28,58.72],[-454.26,53.25],[-464.9,45.64],[-480.17,34.51],[-481.4,32.79],[-480.5,30.75],[-478.9,29.52],[-475.26,29.51],[-475.89,30.47]]]}},{"type":"Feature","properties":{"id":"w1430838676","tipo":"greenfield"},"geometry":{"type":"Polygon","coordinates":[[[-194.6,19.26],[-194.21,30.16],[-193.97,39.66],[-201.94,39.91],[-205.38,40.01],[-205.44,38.09],[-205.76,25.41],[-205.91,19.51],[-194.6,19.26]]]}},{"type":"Feature","properties":{"id":"w1431146091","tipo":"greenfield"},"geometry":{"type":"Polygon","coordinates":[[[-27.8,12.75],[-27.49,19.78],[-27.04,32.14],[-37.76,32.48],[-38.49,13.23],[-27.8,12.75]]]}},{"type":"Feature","properties":{"id":"w1431146146","tipo":"construction"},"geometry":{"type":"Polygon","coordinates":[[[293.65,0.52],[294.29,13.03],[294.39,16.87],[294.31,18.31],[290.78,18.5],[283.02,18.87],[282.4,5.96],[282.15,0.84],[293.65,0.52]]]}},{"type":"Feature","properties":{"id":"w1432508257","tipo":"park"},"geometry":{"type":"Polygon","coordinates":[[[-457.15,124.3],[-468.34,119.65],[-488.15,118.78],[-504.46,116.79],[-515.79,110.34],[-507.54,96.63],[-497.69,96.58],[-490.68,100.44],[-485.8,99.39],[-467.27,108.59],[-432.75,128.35],[-439.43,140.04],[-457.15,124.3]]]}},{"type":"Feature","properties":{"id":"w1432508295","tipo":"construction"},"geometry":{"type":"Polygon","coordinates":[[[-720.43,-332.72],[-697.87,-335.78],[-686.22,-347.26],[-687.13,-369.23],[-677.67,-382.81],[-619.25,-336.6],[-688.1,-236.68],[-750.0,-281.56],[-750.0,-291.37],[-720.43,-332.72]]]}},{"type":"Feature","properties":{"id":"w1432508296","tipo":"construction"},"geometry":{"type":"Polygon","coordinates":[[[-742.27,-370.8],[-739.94,-342.49],[-750.0,-329.03],[-750.0,-376.48],[-742.27,-370.8]]]}},{"type":"Feature","properties":{"id":"w1432508298","tipo":"construction"},"geometry":{"type":"Polygon","coordinates":[[[-709.66,-643.81],[-750.0,-588.27],[-750.0,-673.03],[-709.66,-643.81]]]}},{"type":"Feature","properties":{"id":"w1432508299","tipo":"construction"},"geometry":{"type":"Polygon","coordinates":[[[-564.7,-596.37],[-582.21,-571.41],[-696.97,-661.9],[-708.51,-649.38],[-750.0,-680.22],[-750.0,-700.0],[-662.95,-700.0],[-564.7,-596.37]]]}},{"type":"Feature","properties":{"id":"w1432743565","tipo":"greenfield"},"geometry":{"type":"Polygon","coordinates":[[[-159.32,164.28],[-167.14,164.56],[-167.82,135.07],[-150.82,134.34],[-149.59,164.03],[-159.32,164.28]]]}},{"type":"Feature","properties":{"id":"w1432743566","tipo":"greenfield"},"geometry":{"type":"Polygon","coordinates":[[[-141.52,133.96],[-141.35,138.19],[-136.72,138.0],[-135.8,153.57],[-135.47,163.92],[-136.54,163.84],[-148.44,164.29],[-149.59,164.03],[-150.82,134.34],[-141.52,133.96]]]}},{"type":"Feature","properties":{"id":"w1433570239","tipo":"industrial"},"geometry":{"type":"Polygon","coordinates":[[[503.42,-8.67],[516.13,25.46],[520.34,97.57],[520.79,108.02],[513.24,138.47],[504.89,154.44],[490.39,171.87],[480.92,184.91],[461.22,245.09],[437.86,308.21],[408.31,294.74],[425.91,254.25],[407.63,245.0],[404.6,162.56],[399.64,-3.08],[400.89,-4.2],[503.42,-8.67]]]}},{"type":"Feature","properties":{"id":"w1433570267","tipo":"greenfield"},"geometry":{"type":"Polygon","coordinates":[[[8.79,253.13],[9.18,261.35],[0.43,261.64],[0.06,253.52],[8.79,253.13]]]}},{"type":"Feature","properties":{"id":"w1433570268","tipo":"greenfield"},"geometry":{"type":"Polygon","coordinates":[[[8.79,253.13],[8.37,244.44],[15.3,244.11],[15.68,252.1],[16.11,261.02],[9.18,261.35],[8.79,253.13]]]}},{"type":"Feature","properties":{"id":"w1433570269","tipo":"greenfield"},"geometry":{"type":"Polygon","coordinates":[[[55.07,242.44],[55.54,253.84],[55.77,259.34],[48.35,259.64],[47.65,242.76],[55.07,242.44]]]}},{"type":"Feature","properties":{"id":"w1433999080","tipo":"construction"},"geometry":{"type":"Polygon","coordinates":[[[184.03,362.23],[197.03,367.03],[193.75,373.12],[188.92,382.09],[176.59,379.63],[184.03,362.23]]]}},{"type":"Feature","properties":{"id":"w315291726","nombre":"Plaza de la Constitución","tipo":"park"},"geometry":{"type":"Polygon","coordinates":[[[102.44,47.11],[104.12,89.67],[102.99,89.78],[93.9,90.04],[38.89,92.16],[33.7,92.37],[33.22,77.36],[32.63,65.67],[32.4,52.17],[32.32,49.75],[102.44,47.11]]]}},{"type":"Feature","properties":{"id":"w315291781","nombre":"Cementerio de Cabanillas","tipo":"cemetery"},"geometry":{"type":"Polygon","coordinates":[[[165.94,-246.44],[223.96,-244.93],[223.71,-206.48],[164.54,-208.42],[165.94,-246.44]]]}},{"type":"Feature","properties":{"id":"w317362528","tipo":"farmland"},"geometry":{"type":"Polygon","coordinates":[[[442.96,-675.63],[292.04,-363.15],[256.99,-290.59],[231.48,-285.05],[168.03,-289.41],[179.67,-386.96],[191.79,-439.85],[270.36,-665.1],[288.55,-700.0],[395.19,-700.0],[442.96,-675.63]]]}},{"type":"Feature","properties":{"id":"w317362529","tipo":"farmland"},"geometry":{"type":"Polygon","coordinates":[[[576.04,-604.89],[541.7,-534.96],[530.65,-505.56],[493.31,-353.57],[483.4,-284.38],[468.58,-242.08],[461.88,-227.27],[343.44,-284.07],[361.79,-322.29],[309.03,-353.19],[292.04,-363.15],[442.96,-675.63],[576.04,-604.89]]]}},{"type":"Feature","properties":{"id":"w317362530","tipo":"farmland"},"geometry":{"type":"Polygon","coordinates":[[[750.0,-515.83],[750.0,-415.94],[748.12,-412.86],[681.19,-225.4],[663.55,-192.35],[609.74,-93.17],[590.67,-40.18],[582.59,-19.69],[568.36,23.2],[567.58,15.76],[561.24,9.17],[528.25,-9.27],[427.04,-70.24],[404.9,-83.59],[395.05,-89.51],[418.09,-133.94],[461.88,-227.27],[468.58,-242.08],[483.4,-284.38],[493.31,-353.57],[530.65,-505.56],[541.7,-534.96],[576.04,-604.89],[750.0,-515.83]]]}},{"type":"Feature","properties":{"id":"w353032628","tipo":"residential"},"geometry":{"type":"Polygon","coordinates":[[[-501.41,24.99],[-466.86,23.6],[-464.18,23.49],[-237.99,14.38],[-237.92,8.29],[-239.04,-26.56],[-240.62,-75.2],[-242.27,-124.07],[-221.44,-125.98],[-161.65,-131.46],[-119.42,-131.92],[-110.89,-132.01],[-63.29,-132.53],[-46.49,-133.08],[-46.54,-137.31],[-46.58,-140.4],[-47.99,-171.39],[114.07,-178.65],[116.54,-170.71],[117.66,-164.07],[118.61,-157.6],[120.02,-152.96],[129.15,-146.47],[118.85,-134.62],[250.38,-132.64],[250.83,-121.28],[251.46,-105.13],[253.22,-41.61],[396.73,-45.53],[397.8,-13.74],[442.52,-14.95],[458.42,-17.69],[508.34,-14.56],[511.43,-9.9],[537.1,69.29],[541.27,72.19],[549.65,89.7],[553.94,94.55],[559.52,105.16],[530.31,221.67],[500.2,244.54],[490.39,260.22],[497.47,288.03],[506.21,315.57],[521.73,327.65],[515.21,346.6],[510.83,356.34],[458.75,328.86],[448.74,325.77],[454.33,384.8],[476.56,405.48],[455.03,485.78],[450.08,501.69],[429.67,500.39],[382.53,490.67],[313.84,459.48],[258.45,443.07],[158.99,409.93],[83.21,379.23],[78.4,377.28],[-60.52,328.43],[-248.78,273.36],[-284.0,259.97],[-339.06,228.81],[-381.07,218.88],[-412.87,204.71],[-427.77,193.23],[-441.0,169.84],[-452.52,149.46],[-439.43,140.04],[-432.75,128.35],[-416.89,98.91],[-420.82,92.46],[-470.49,54.32],[-501.28,31.81],[-501.41,24.99]]]}},{"type":"Feature","properties":{"id":"w666973948","nombre":"Complejo Ganadero de Cabanillas","tipo":"farmyard"},"geometry":{"type":"Polygon","coordinates":[[[729.45,-108.0],[750.0,-148.08],[750.0,215.59],[696.16,187.82],[667.62,234.73],[661.57,244.66],[585.16,205.28],[572.25,198.63],[729.45,-108.0]]]}},{"type":"Feature","properties":{"id":"w666973952","tipo":"farmland"},"geometry":{"type":"Polygon","coordinates":[[[-600.13,-656.05],[-640.28,-700.0],[-571.97,-700.0],[-600.13,-656.05]]]}},{"type":"Feature","properties":{"id":"w666973953","tipo":"farmland"},"geometry":{"type":"Polygon","coordinates":[[[-454.95,-495.05],[-485.75,-529.14],[-589.96,-644.54],[-591.27,-652.12],[-560.44,-700.0],[-315.64,-700.0],[-454.95,-495.05]]]}},{"type":"Feature","properties":{"id":"w666973954","tipo":"farmland"},"geometry":{"type":"Polygon","coordinates":[[[-268.6,-307.94],[-309.02,-334.25],[-445.71,-483.24],[-445.84,-490.75],[-303.26,-700.0],[-23.52,-700.0],[-268.6,-307.94]]]}},{"type":"Feature","properties":{"id":"w666973955","tipo":"allotments"},"geometry":{"type":"MultiPolygon","coordinates":[[[[274.5,-688.89],[260.5,-700.0],[279.98,-700.0],[274.5,-688.89]]],[[[68.11,-435.43],[-11.26,-479.2],[-128.83,-290.87],[-222.5,-365.38],[-13.45,-700.0],[234.06,-700.0],[68.11,-435.43]]]]}}]}